<?xml version="1.0" encoding="UTF-8"?>
<gpx version="1.1" creator="GPS Visualizer https://www.gpsvisualizer.com/" schemaLocation="http://www.topografix.com/GPX/1/1 http://www.topografix.com/GPX/1/1/gpx.xsd http://www.garmin.com/xmlschemas/TrackPointExtension/v2 http://www.garmin.com/xmlschemas/TrackPointExtensionv2.xsd http://www.garmin.com/xmlschemas/GpxExtensions/v3 http://www.garmin.com/xmlschemas/GpxExtensionsv3.xsd" xmlns="http://www.topografix.com/GPX/1/1" xmlns:xsi="http://www.w3.org/2001/XMLSchema-instance" xsi:schemaLocation="http://www.topografix.com/GPX/1/1 http://www.topografix.com/GPX/1/1/gpx.xsd http://www.garmin.com/xmlschemas/GpxExtensions/v3 http://www.garmin.com/xmlschemas/GpxExtensionsv3.xsd http://www.garmin.com/xmlschemas/TrackPointExtension/v1 http://www.garmin.com/xmlschemas/TrackPointExtensionv1.xsd http://www.garmin.com/xmlschemas/PowerExtension/v1 http://www.garmin.com/xmlschemas/PowerExtensionv1.xsd http://www.topografix.com/GPX/gpx_style/0/2 http://www.topografix.com/GPX/gpx_style/0/2/gpx_style.xsd" xmlns:gpxtpx="http://www.garmin.com/xmlschemas/TrackPointExtension/v1" xmlns:gpxx="http://www.garmin.com/xmlschemas/GpxExtensions/v3" xmlns:gpxpx="http://www.garmin.com/xmlschemas/PowerExtension/v1" xmlns:gpx_style="http://www.topografix.com/GPX/gpx_style/0/2">
  <metadata>
    <name>AncaresTrail2026-30km_PROVISIONAL</name>
    <author>
      <name>gpx.studio</name>
      <link href="https://gpx.studio"/>
    </author>
  </metadata>
  <trk>
    <name>AncaresTrail2026-30km_PROVISIONAL</name>
    <trkseg>
      <trkpt lat="42.826014529" lon="-6.745073396">
        <ele>932.316</ele>
      </trkpt>
      <trkpt lat="42.825586585" lon="-6.744885171">
        <ele>934.471</ele>
      </trkpt>
      <trkpt lat="42.82515864" lon="-6.744696946">
        <ele>936.404</ele>
      </trkpt>
      <trkpt lat="42.824730695" lon="-6.744508721">
        <ele>940.997</ele>
      </trkpt>
      <trkpt lat="42.824571831" lon="-6.744438847">
        <ele>943.717</ele>
      </trkpt>
      <trkpt lat="42.824575416" lon="-6.745051913">
        <ele>957.463</ele>
      </trkpt>
      <trkpt lat="42.824576609" lon="-6.745255776">
        <ele>961.815</ele>
      </trkpt>
      <trkpt lat="42.824576609" lon="-6.745255776">
        <ele>961.815</ele>
      </trkpt>
      <trkpt lat="42.824786659" lon="-6.745590884">
        <ele>962.773</ele>
      </trkpt>
      <trkpt lat="42.824925799" lon="-6.74592549">
        <ele>966.303</ele>
      </trkpt>
      <trkpt lat="42.82506167" lon="-6.746015511">
        <ele>965.134</ele>
      </trkpt>
      <trkpt lat="42.825100059" lon="-6.746286079">
        <ele>971.621</ele>
      </trkpt>
      <trkpt lat="42.825284293" lon="-6.746272836">
        <ele>966.039</ele>
      </trkpt>
      <trkpt lat="42.825812101" lon="-6.746916231">
        <ele>970.696</ele>
      </trkpt>
      <trkpt lat="42.825882426" lon="-6.747097028">
        <ele>973.643</ele>
      </trkpt>
      <trkpt lat="42.825900698" lon="-6.747363657">
        <ele>978.809</ele>
      </trkpt>
      <trkpt lat="42.826048974" lon="-6.74745921">
        <ele>979.327</ele>
      </trkpt>
      <trkpt lat="42.826124411" lon="-6.747619975">
        <ele>983.834</ele>
      </trkpt>
      <trkpt lat="42.826207392" lon="-6.74788719">
        <ele>991.198</ele>
      </trkpt>
      <trkpt lat="42.826329097" lon="-6.748440145">
        <ele>1008.432</ele>
      </trkpt>
      <trkpt lat="42.826615172" lon="-6.748796292">
        <ele>1011.101</ele>
      </trkpt>
      <trkpt lat="42.826835364" lon="-6.749362154">
        <ele>1026.359</ele>
      </trkpt>
      <trkpt lat="42.826959752" lon="-6.749514872">
        <ele>1028.15</ele>
      </trkpt>
      <trkpt lat="42.827038709" lon="-6.749736071">
        <ele>1034.09</ele>
      </trkpt>
      <trkpt lat="42.827120768" lon="-6.749805724">
        <ele>1034.453</ele>
      </trkpt>
      <trkpt lat="42.827561153" lon="-6.750535704">
        <ele>1046.044</ele>
      </trkpt>
      <trkpt lat="42.827786459" lon="-6.751147415">
        <ele>1056.887</ele>
      </trkpt>
      <trkpt lat="42.827927107" lon="-6.751335338">
        <ele>1057.559</ele>
      </trkpt>
      <trkpt lat="42.827941943" lon="-6.751536503">
        <ele>1062.726</ele>
      </trkpt>
      <trkpt lat="42.82816356" lon="-6.751981499">
        <ele>1069.179</ele>
      </trkpt>
      <trkpt lat="42.828276716" lon="-6.752407132">
        <ele>1076.834</ele>
      </trkpt>
      <trkpt lat="42.828341844" lon="-6.752518527">
        <ele>1076.694</ele>
      </trkpt>
      <trkpt lat="42.828355758" lon="-6.752889343">
        <ele>1080.278</ele>
      </trkpt>
      <trkpt lat="42.828544183" lon="-6.753172567">
        <ele>1074.41</ele>
      </trkpt>
      <trkpt lat="42.828514762" lon="-6.753821326">
        <ele>1090.924</ele>
      </trkpt>
      <trkpt lat="42.828553319" lon="-6.753899446">
        <ele>1091.673</ele>
      </trkpt>
      <trkpt lat="42.828476205" lon="-6.754003549">
        <ele>1094.497</ele>
      </trkpt>
      <trkpt lat="42.828502441" lon="-6.754062809">
        <ele>1095.053</ele>
      </trkpt>
      <trkpt lat="42.828476876" lon="-6.754234135">
        <ele>1097.314</ele>
      </trkpt>
      <trkpt lat="42.828386435" lon="-6.754309488">
        <ele>1096.065</ele>
      </trkpt>
      <trkpt lat="42.828382915" lon="-6.754425745">
        <ele>1096.978</ele>
      </trkpt>
      <trkpt lat="42.828223743" lon="-6.754662786">
        <ele>1102.533</ele>
      </trkpt>
      <trkpt lat="42.82807488" lon="-6.755081294">
        <ele>1106.09</ele>
      </trkpt>
      <trkpt lat="42.827992821" lon="-6.755149355">
        <ele>1108.224</ele>
      </trkpt>
      <trkpt lat="42.827793919" lon="-6.755466778">
        <ele>1112.938</ele>
      </trkpt>
      <trkpt lat="42.827988379" lon="-6.755960975">
        <ele>1126.89</ele>
      </trkpt>
      <trkpt lat="42.828097343" lon="-6.756098606">
        <ele>1130.782</ele>
      </trkpt>
      <trkpt lat="42.828192897" lon="-6.75605787">
        <ele>1134.756</ele>
      </trkpt>
      <trkpt lat="42.828313177" lon="-6.755822087">
        <ele>1137.966</ele>
      </trkpt>
      <trkpt lat="42.828373443" lon="-6.755593847">
        <ele>1140.17</ele>
      </trkpt>
      <trkpt lat="42.828468075" lon="-6.755548501">
        <ele>1142.053</ele>
      </trkpt>
      <trkpt lat="42.828976773" lon="-6.755850501">
        <ele>1155.031</ele>
      </trkpt>
      <trkpt lat="42.829255806" lon="-6.75590557">
        <ele>1157.604</ele>
      </trkpt>
      <trkpt lat="42.83029181" lon="-6.75635484">
        <ele>1156.324</ele>
      </trkpt>
      <trkpt lat="42.8306814" lon="-6.756368084">
        <ele>1155.929</ele>
      </trkpt>
      <trkpt lat="42.831095718" lon="-6.756251575">
        <ele>1154.962</ele>
      </trkpt>
      <trkpt lat="42.831299985" lon="-6.756289881">
        <ele>1153.866</ele>
      </trkpt>
      <trkpt lat="42.831580946" lon="-6.756446958">
        <ele>1154.344</ele>
      </trkpt>
      <trkpt lat="42.831809353" lon="-6.756685926">
        <ele>1154.86</ele>
      </trkpt>
      <trkpt lat="42.832015129" lon="-6.75708021">
        <ele>1154.228</ele>
      </trkpt>
      <trkpt lat="42.832146222" lon="-6.757493606">
        <ele>1154.77</ele>
      </trkpt>
      <trkpt lat="42.832234651" lon="-6.757954611">
        <ele>1157.116</ele>
      </trkpt>
      <trkpt lat="42.83247211" lon="-6.758462554">
        <ele>1155.879</ele>
      </trkpt>
      <trkpt lat="42.832983574" lon="-6.760303052">
        <ele>1157.254</ele>
      </trkpt>
      <trkpt lat="42.833287418" lon="-6.760943094">
        <ele>1155.84</ele>
      </trkpt>
      <trkpt lat="42.833463941" lon="-6.761497306">
        <ele>1157.819</ele>
      </trkpt>
      <trkpt lat="42.833565362" lon="-6.761764521">
        <ele>1158.159</ele>
      </trkpt>
      <trkpt lat="42.833625963" lon="-6.761899218">
        <ele>1158.067</ele>
      </trkpt>
      <trkpt lat="42.833767533" lon="-6.762158554">
        <ele>1156.417</ele>
      </trkpt>
      <trkpt lat="42.833899213" lon="-6.763174105">
        <ele>1154.766</ele>
      </trkpt>
      <trkpt lat="42.833847497" lon="-6.763339564">
        <ele>1157.629</ele>
      </trkpt>
      <trkpt lat="42.833673907" lon="-6.76362983">
        <ele>1160.518</ele>
      </trkpt>
      <trkpt lat="42.833650438" lon="-6.764404401">
        <ele>1159.629</ele>
      </trkpt>
      <trkpt lat="42.833742388" lon="-6.764425524">
        <ele>1160.92</ele>
      </trkpt>
      <trkpt lat="42.833907595" lon="-6.76428739">
        <ele>1155.241</ele>
      </trkpt>
      <trkpt lat="42.83457865" lon="-6.764107598">
        <ele>1155.445</ele>
      </trkpt>
      <trkpt lat="42.834699014" lon="-6.76413442">
        <ele>1157.055</ele>
      </trkpt>
      <trkpt lat="42.835028088" lon="-6.764761889">
        <ele>1159.866</ele>
      </trkpt>
      <trkpt lat="42.835351462" lon="-6.764941011">
        <ele>1160.393</ele>
      </trkpt>
      <trkpt lat="42.835519183" lon="-6.764959032">
        <ele>1158.957</ele>
      </trkpt>
      <trkpt lat="42.835765276" lon="-6.765190959">
        <ele>1157.296</ele>
      </trkpt>
      <trkpt lat="42.835891256" lon="-6.765532773">
        <ele>1160.072</ele>
      </trkpt>
      <trkpt lat="42.836082615" lon="-6.765895542">
        <ele>1158.305</ele>
      </trkpt>
      <trkpt lat="42.836189149" lon="-6.766229225">
        <ele>1160.929</ele>
      </trkpt>
      <trkpt lat="42.836567089" lon="-6.7665557">
        <ele>1155.899</ele>
      </trkpt>
      <trkpt lat="42.836621404" lon="-6.766810678">
        <ele>1161.111</ele>
      </trkpt>
      <trkpt lat="42.836741181" lon="-6.766965827">
        <ele>1157.538</ele>
      </trkpt>
      <trkpt lat="42.836852074" lon="-6.767326668">
        <ele>1156.772</ele>
      </trkpt>
      <trkpt lat="42.836808488" lon="-6.767549124">
        <ele>1163.944</ele>
      </trkpt>
      <trkpt lat="42.836897001" lon="-6.767748026">
        <ele>1157.45</ele>
      </trkpt>
      <trkpt lat="42.83687219" lon="-6.767981295">
        <ele>1161.287</ele>
      </trkpt>
      <trkpt lat="42.836934971" lon="-6.768273655">
        <ele>1158.215</ele>
      </trkpt>
      <trkpt lat="42.836930528" lon="-6.768439366">
        <ele>1158.107</ele>
      </trkpt>
      <trkpt lat="42.836775379" lon="-6.769244447">
        <ele>1159.026</ele>
      </trkpt>
      <trkpt lat="42.836384531" lon="-6.770043159">
        <ele>1166.374</ele>
      </trkpt>
      <trkpt lat="42.836092338" lon="-6.770515395">
        <ele>1175.978</ele>
      </trkpt>
      <trkpt lat="42.835799893" lon="-6.770907082">
        <ele>1188.402</ele>
      </trkpt>
      <trkpt lat="42.835738203" lon="-6.771337828">
        <ele>1193.447</ele>
      </trkpt>
      <trkpt lat="42.836297946" lon="-6.771691293">
        <ele>1203.193</ele>
      </trkpt>
      <trkpt lat="42.836478492" lon="-6.772008799">
        <ele>1212.528</ele>
      </trkpt>
      <trkpt lat="42.836645124" lon="-6.772599053">
        <ele>1224.295</ele>
      </trkpt>
      <trkpt lat="42.836730704" lon="-6.7730127">
        <ele>1231.125</ele>
      </trkpt>
      <trkpt lat="42.836695835" lon="-6.773310928">
        <ele>1239.11</ele>
      </trkpt>
      <trkpt lat="42.836736068" lon="-6.773467334">
        <ele>1241.361</ele>
      </trkpt>
      <trkpt lat="42.836752832" lon="-6.773947449">
        <ele>1251.852</ele>
      </trkpt>
      <trkpt lat="42.836878812" lon="-6.774367969">
        <ele>1251.203</ele>
      </trkpt>
      <trkpt lat="42.836948298" lon="-6.774910279">
        <ele>1252.316</ele>
      </trkpt>
      <trkpt lat="42.836911334" lon="-6.775356783">
        <ele>1256.435</ele>
      </trkpt>
      <trkpt lat="42.836928433" lon="-6.775724748">
        <ele>1258.346</ele>
      </trkpt>
      <trkpt lat="42.837068997" lon="-6.77616505">
        <ele>1258.331</ele>
      </trkpt>
      <trkpt lat="42.837163294" lon="-6.776286922">
        <ele>1255.151</ele>
      </trkpt>
      <trkpt lat="42.837208724" lon="-6.776499907">
        <ele>1255.42</ele>
      </trkpt>
      <trkpt lat="42.837198582" lon="-6.77678003">
        <ele>1255.528</ele>
      </trkpt>
      <trkpt lat="42.837125072" lon="-6.777140619">
        <ele>1255.676</ele>
      </trkpt>
      <trkpt lat="42.837003954" lon="-6.777421748">
        <ele>1256.705</ele>
      </trkpt>
      <trkpt lat="42.836774038" lon="-6.777726933">
        <ele>1257.75</ele>
      </trkpt>
      <trkpt lat="42.835416673" lon="-6.77884751">
        <ele>1256.436</ele>
      </trkpt>
      <trkpt lat="42.835219111" lon="-6.778964689">
        <ele>1258.322</ele>
      </trkpt>
      <trkpt lat="42.835010067" lon="-6.779223438">
        <ele>1256.353</ele>
      </trkpt>
      <trkpt lat="42.834748719" lon="-6.779458383">
        <ele>1257.504</ele>
      </trkpt>
      <trkpt lat="42.834044555" lon="-6.780054588">
        <ele>1267.217</ele>
      </trkpt>
      <trkpt lat="42.83393316" lon="-6.780097671">
        <ele>1270.297</ele>
      </trkpt>
      <trkpt lat="42.833920671" lon="-6.780179059">
        <ele>1268.988</ele>
      </trkpt>
      <trkpt lat="42.833823357" lon="-6.780168833">
        <ele>1273.041</ele>
      </trkpt>
      <trkpt lat="42.83343561" lon="-6.780624809">
        <ele>1283.042</ele>
      </trkpt>
      <trkpt lat="42.833108129" lon="-6.781155132">
        <ele>1292.493</ele>
      </trkpt>
      <trkpt lat="42.832823144" lon="-6.781304833">
        <ele>1299.866</ele>
      </trkpt>
      <trkpt lat="42.8322546" lon="-6.781884776">
        <ele>1308.766</ele>
      </trkpt>
      <trkpt lat="42.83222409" lon="-6.781978738">
        <ele>1308.299</ele>
      </trkpt>
      <trkpt lat="42.832411174" lon="-6.782347709">
        <ele>1308.269</ele>
      </trkpt>
      <trkpt lat="42.832838399" lon="-6.782586761">
        <ele>1304.84</ele>
      </trkpt>
      <trkpt lat="42.833091533" lon="-6.782826986">
        <ele>1307.126</ele>
      </trkpt>
      <trkpt lat="42.833336117" lon="-6.782970401">
        <ele>1306.154</ele>
      </trkpt>
      <trkpt lat="42.833720762" lon="-6.783506088">
        <ele>1311.24</ele>
      </trkpt>
      <trkpt lat="42.833699975" lon="-6.783693591">
        <ele>1312.562</ele>
      </trkpt>
      <trkpt lat="42.833579443" lon="-6.784058036">
        <ele>1313.928</ele>
      </trkpt>
      <trkpt lat="42.83355874" lon="-6.784329442">
        <ele>1313.021</ele>
      </trkpt>
      <trkpt lat="42.833423037" lon="-6.784769576">
        <ele>1318.057</ele>
      </trkpt>
      <trkpt lat="42.833419601" lon="-6.785167716">
        <ele>1321.583</ele>
      </trkpt>
      <trkpt lat="42.833369896" lon="-6.78554113">
        <ele>1326.006</ele>
      </trkpt>
      <trkpt lat="42.833474502" lon="-6.786175389">
        <ele>1329.649</ele>
      </trkpt>
      <trkpt lat="42.833679523" lon="-6.786722224">
        <ele>1335.443</ele>
      </trkpt>
      <trkpt lat="42.834267765" lon="-6.786771007">
        <ele>1346.291</ele>
      </trkpt>
      <trkpt lat="42.834746037" lon="-6.786919199">
        <ele>1355.618</ele>
      </trkpt>
      <trkpt lat="42.834812673" lon="-6.786901681">
        <ele>1355.677</ele>
      </trkpt>
      <trkpt lat="42.834998667" lon="-6.787006035">
        <ele>1359.763</ele>
      </trkpt>
      <trkpt lat="42.835237216" lon="-6.787063368">
        <ele>1363.499</ele>
      </trkpt>
      <trkpt lat="42.835472329" lon="-6.78705507">
        <ele>1363.305</ele>
      </trkpt>
      <trkpt lat="42.835627561" lon="-6.787256738">
        <ele>1365.305</ele>
      </trkpt>
      <trkpt lat="42.835830487" lon="-6.787735764">
        <ele>1369.064</ele>
      </trkpt>
      <trkpt lat="42.836105833" lon="-6.788192578">
        <ele>1372.58</ele>
      </trkpt>
      <trkpt lat="42.83622209" lon="-6.788196601">
        <ele>1373.737</ele>
      </trkpt>
      <trkpt lat="42.83654429" lon="-6.788018653">
        <ele>1375.56</ele>
      </trkpt>
      <trkpt lat="42.836927427" lon="-6.788093755">
        <ele>1383.158</ele>
      </trkpt>
      <trkpt lat="42.837201934" lon="-6.788032399">
        <ele>1385.962</ele>
      </trkpt>
      <trkpt lat="42.837649109" lon="-6.788031226">
        <ele>1395.493</ele>
      </trkpt>
      <trkpt lat="42.837865027" lon="-6.788147232">
        <ele>1400.803</ele>
      </trkpt>
      <trkpt lat="42.837931328" lon="-6.788256448">
        <ele>1403.427</ele>
      </trkpt>
      <trkpt lat="42.838115394" lon="-6.788401287">
        <ele>1407.404</ele>
      </trkpt>
      <trkpt lat="42.838324606" lon="-6.788478568">
        <ele>1411.426</ele>
      </trkpt>
      <trkpt lat="42.838500459" lon="-6.788482759">
        <ele>1414.112</ele>
      </trkpt>
      <trkpt lat="42.838546643" lon="-6.788523495">
        <ele>1415.692</ele>
      </trkpt>
      <trkpt lat="42.838633899" lon="-6.788858855">
        <ele>1422.539</ele>
      </trkpt>
      <trkpt lat="42.838669773" lon="-6.789074438">
        <ele>1424.772</ele>
      </trkpt>
      <trkpt lat="42.83864337" lon="-6.789405271">
        <ele>1431.665</ele>
      </trkpt>
      <trkpt lat="42.838735152" lon="-6.789474254">
        <ele>1431.578</ele>
      </trkpt>
      <trkpt lat="42.838626942" lon="-6.789788241">
        <ele>1442.559</ele>
      </trkpt>
      <trkpt lat="42.838648986" lon="-6.790009355">
        <ele>1448.384</ele>
      </trkpt>
      <trkpt lat="42.838609843" lon="-6.790110944">
        <ele>1451.385</ele>
      </trkpt>
      <trkpt lat="42.838641275" lon="-6.790176323">
        <ele>1452.157</ele>
      </trkpt>
      <trkpt lat="42.838570196" lon="-6.790412022">
        <ele>1456.975</ele>
      </trkpt>
      <trkpt lat="42.838693494" lon="-6.790586282">
        <ele>1459.699</ele>
      </trkpt>
      <trkpt lat="42.838714616" lon="-6.790775377">
        <ele>1464.84</ele>
      </trkpt>
      <trkpt lat="42.838754598" lon="-6.79084084">
        <ele>1466.189</ele>
      </trkpt>
      <trkpt lat="42.838605316" lon="-6.791136134">
        <ele>1479.703</ele>
      </trkpt>
      <trkpt lat="42.838601293" lon="-6.791370912">
        <ele>1487.175</ele>
      </trkpt>
      <trkpt lat="42.838655608" lon="-6.791412737">
        <ele>1487.392</ele>
      </trkpt>
      <trkpt lat="42.838657368" lon="-6.791507537">
        <ele>1490.014</ele>
      </trkpt>
      <trkpt lat="42.838601293" lon="-6.791643407">
        <ele>1495.018</ele>
      </trkpt>
      <trkpt lat="42.83860255" lon="-6.791832251">
        <ele>1498.722</ele>
      </trkpt>
      <trkpt lat="42.838688549" lon="-6.791931996">
        <ele>1498.8</ele>
      </trkpt>
      <trkpt lat="42.838595593" lon="-6.792048756">
        <ele>1502.16</ele>
      </trkpt>
      <trkpt lat="42.838593414" lon="-6.79219041">
        <ele>1504.314</ele>
      </trkpt>
      <trkpt lat="42.838533316" lon="-6.792240534">
        <ele>1504.629</ele>
      </trkpt>
      <trkpt lat="42.83852837" lon="-6.792321503">
        <ele>1506.677</ele>
      </trkpt>
      <trkpt lat="42.838596348" lon="-6.792394677">
        <ele>1508.698</ele>
      </trkpt>
      <trkpt lat="42.838609507" lon="-6.792560555">
        <ele>1512.533</ele>
      </trkpt>
      <trkpt lat="42.838506494" lon="-6.792735234">
        <ele>1517.623</ele>
      </trkpt>
      <trkpt lat="42.838496938" lon="-6.792830033">
        <ele>1520.36</ele>
      </trkpt>
      <trkpt lat="42.83862845" lon="-6.793152066">
        <ele>1529.837</ele>
      </trkpt>
      <trkpt lat="42.838469697" lon="-6.793286512">
        <ele>1534.906</ele>
      </trkpt>
      <trkpt lat="42.838424603" lon="-6.793405535">
        <ele>1538.751</ele>
      </trkpt>
      <trkpt lat="42.838442875" lon="-6.793558085">
        <ele>1543.078</ele>
      </trkpt>
      <trkpt lat="42.838401552" lon="-6.793628996">
        <ele>1545.205</ele>
      </trkpt>
      <trkpt lat="42.838432817" lon="-6.793700578">
        <ele>1546.896</ele>
      </trkpt>
      <trkpt lat="42.838391326" lon="-6.793749612">
        <ele>1548.281</ele>
      </trkpt>
      <trkpt lat="42.838411778" lon="-6.793791773">
        <ele>1549.27</ele>
      </trkpt>
      <trkpt lat="42.838381855" lon="-6.793894535">
        <ele>1551.995</ele>
      </trkpt>
      <trkpt lat="42.838252522" lon="-6.79402303">
        <ele>1556.305</ele>
      </trkpt>
      <trkpt lat="42.838194938" lon="-6.794165187">
        <ele>1560.458</ele>
      </trkpt>
      <trkpt lat="42.837821273" lon="-6.794488812">
        <ele>1569.801</ele>
      </trkpt>
      <trkpt lat="42.837742148" lon="-6.794678159">
        <ele>1575.059</ele>
      </trkpt>
      <trkpt lat="42.837568726" lon="-6.794980243">
        <ele>1582.579</ele>
      </trkpt>
      <trkpt lat="42.837397149" lon="-6.795069929">
        <ele>1585.165</ele>
      </trkpt>
      <trkpt lat="42.837363202" lon="-6.795130614">
        <ele>1587.455</ele>
      </trkpt>
      <trkpt lat="42.837316683" lon="-6.795111755">
        <ele>1587.078</ele>
      </trkpt>
      <trkpt lat="42.837213418" lon="-6.795288529">
        <ele>1593.652</ele>
      </trkpt>
      <trkpt lat="42.837031865" lon="-6.795340329">
        <ele>1599.505</ele>
      </trkpt>
      <trkpt lat="42.836853499" lon="-6.795469159">
        <ele>1608.589</ele>
      </trkpt>
      <trkpt lat="42.836593492" lon="-6.79547796">
        <ele>1614.924</ele>
      </trkpt>
      <trkpt lat="42.83649249" lon="-6.795621542">
        <ele>1619.094</ele>
      </trkpt>
      <trkpt lat="42.836459717" lon="-6.795779038">
        <ele>1623.532</ele>
      </trkpt>
      <trkpt lat="42.836437672" lon="-6.796010546">
        <ele>1630.328</ele>
      </trkpt>
      <trkpt lat="42.836588295" lon="-6.796445651">
        <ele>1648.003</ele>
      </trkpt>
      <trkpt lat="42.836628528" lon="-6.796471132">
        <ele>1649.36</ele>
      </trkpt>
      <trkpt lat="42.836634731" lon="-6.796633992">
        <ele>1656.561</ele>
      </trkpt>
      <trkpt lat="42.836998925" lon="-6.79662779">
        <ele>1661.707</ele>
      </trkpt>
      <trkpt lat="42.836869508" lon="-6.796990223">
        <ele>1670.269</ele>
      </trkpt>
      <trkpt lat="42.836656105" lon="-6.797256516">
        <ele>1682.555</ele>
      </trkpt>
      <trkpt lat="42.836686531" lon="-6.79748266">
        <ele>1684.026</ele>
      </trkpt>
      <trkpt lat="42.836453933" lon="-6.79775767">
        <ele>1695.714</ele>
      </trkpt>
      <trkpt lat="42.836183617" lon="-6.798571553">
        <ele>1705.04</ele>
      </trkpt>
      <trkpt lat="42.835937943" lon="-6.799436314">
        <ele>1712.151</ele>
      </trkpt>
      <trkpt lat="42.835990749" lon="-6.799957752">
        <ele>1705.835</ele>
      </trkpt>
      <trkpt lat="42.836193256" lon="-6.800768701">
        <ele>1700.158</ele>
      </trkpt>
      <trkpt lat="42.836275985" lon="-6.801271699">
        <ele>1697.966</ele>
      </trkpt>
      <trkpt lat="42.836435409" lon="-6.801872849">
        <ele>1701.522</ele>
      </trkpt>
      <trkpt lat="42.836525766" lon="-6.802284569">
        <ele>1700.073</ele>
      </trkpt>
      <trkpt lat="42.836568095" lon="-6.80274968">
        <ele>1693.512</ele>
      </trkpt>
      <trkpt lat="42.83652233" lon="-6.802945817">
        <ele>1688.451</ele>
      </trkpt>
      <trkpt lat="42.836562898" lon="-6.802997282">
        <ele>1687.173</ele>
      </trkpt>
      <trkpt lat="42.836563066" lon="-6.803141283">
        <ele>1686.134</ele>
      </trkpt>
      <trkpt lat="42.836660799" lon="-6.803445211">
        <ele>1692.743</ele>
      </trkpt>
      <trkpt lat="42.836653506" lon="-6.803751653">
        <ele>1697.581</ele>
      </trkpt>
      <trkpt lat="42.83675476" lon="-6.80380513">
        <ele>1695.465</ele>
      </trkpt>
      <trkpt lat="42.836766411" lon="-6.804412147">
        <ele>1697.786</ele>
      </trkpt>
      <trkpt lat="42.836959362" lon="-6.804975076">
        <ele>1702.554</ele>
      </trkpt>
      <trkpt lat="42.836933546" lon="-6.805154532">
        <ele>1702.968</ele>
      </trkpt>
      <trkpt lat="42.836932121" lon="-6.805322673">
        <ele>1702.556</ele>
      </trkpt>
      <trkpt lat="42.836955506" lon="-6.805676222">
        <ele>1702.878</ele>
      </trkpt>
      <trkpt lat="42.837062711" lon="-6.806006804">
        <ele>1696.335</ele>
      </trkpt>
      <trkpt lat="42.837024489" lon="-6.806183746">
        <ele>1696.587</ele>
      </trkpt>
      <trkpt lat="42.837066818" lon="-6.806272427">
        <ele>1694.48</ele>
      </trkpt>
      <trkpt lat="42.837021556" lon="-6.806452051">
        <ele>1694.17</ele>
      </trkpt>
      <trkpt lat="42.837064052" lon="-6.806560261">
        <ele>1693.065</ele>
      </trkpt>
      <trkpt lat="42.837049216" lon="-6.806663526">
        <ele>1693.121</ele>
      </trkpt>
      <trkpt lat="42.837106632" lon="-6.806887239">
        <ele>1693.472</ele>
      </trkpt>
      <trkpt lat="42.837122893" lon="-6.807159148">
        <ele>1696.418</ele>
      </trkpt>
      <trkpt lat="42.83723521" lon="-6.807492748">
        <ele>1703.259</ele>
      </trkpt>
      <trkpt lat="42.837308887" lon="-6.807555528">
        <ele>1699.818</ele>
      </trkpt>
      <trkpt lat="42.837508461" lon="-6.80780598">
        <ele>1698.951</ele>
      </trkpt>
      <trkpt lat="42.837761175" lon="-6.807895331">
        <ele>1692.927</ele>
      </trkpt>
      <trkpt lat="42.83787081" lon="-6.808073279">
        <ele>1691.705</ele>
      </trkpt>
      <trkpt lat="42.837980026" lon="-6.808093982">
        <ele>1688.548</ele>
      </trkpt>
      <trkpt lat="42.838148167" lon="-6.808222979">
        <ele>1686.607</ele>
      </trkpt>
      <trkpt lat="42.838233579" lon="-6.808238318">
        <ele>1687.135</ele>
      </trkpt>
      <trkpt lat="42.838402977" lon="-6.80822474">
        <ele>1684.169</ele>
      </trkpt>
      <trkpt lat="42.838465171" lon="-6.808418445">
        <ele>1682.875</ele>
      </trkpt>
      <trkpt lat="42.838608837" lon="-6.808703849">
        <ele>1677.977</ele>
      </trkpt>
      <trkpt lat="42.838849733" lon="-6.808961006">
        <ele>1675.078</ele>
      </trkpt>
      <trkpt lat="42.838903712" lon="-6.808950696">
        <ele>1675.336</ele>
      </trkpt>
      <trkpt lat="42.838979233" lon="-6.809087154">
        <ele>1675.314</ele>
      </trkpt>
      <trkpt lat="42.839088198" lon="-6.80914524">
        <ele>1677.74</ele>
      </trkpt>
      <trkpt lat="42.839131532" lon="-6.809223611">
        <ele>1677.856</ele>
      </trkpt>
      <trkpt lat="42.839271426" lon="-6.809249846">
        <ele>1679.143</ele>
      </trkpt>
      <trkpt lat="42.839411655" lon="-6.809417568">
        <ele>1684.766</ele>
      </trkpt>
      <trkpt lat="42.839594465" lon="-6.809498454">
        <ele>1685.504</ele>
      </trkpt>
      <trkpt lat="42.839815412" lon="-6.809906736">
        <ele>1690.337</ele>
      </trkpt>
      <trkpt lat="42.840039292" lon="-6.81014562">
        <ele>1699.592</ele>
      </trkpt>
      <trkpt lat="42.840058152" lon="-6.810244862">
        <ele>1702.966</ele>
      </trkpt>
      <trkpt lat="42.840141971" lon="-6.810276043">
        <ele>1708.076</ele>
      </trkpt>
      <trkpt lat="42.840281278" lon="-6.810196079">
        <ele>1709.004</ele>
      </trkpt>
      <trkpt lat="42.840258144" lon="-6.810295573">
        <ele>1714.23</ele>
      </trkpt>
      <trkpt lat="42.840260323" lon="-6.810361454">
        <ele>1715.174</ele>
      </trkpt>
      <trkpt lat="42.840397032" lon="-6.810622048">
        <ele>1718.345</ele>
      </trkpt>
      <trkpt lat="42.84039259" lon="-6.810714919">
        <ele>1719.756</ele>
      </trkpt>
      <trkpt lat="42.840473978" lon="-6.810765713">
        <ele>1722.677</ele>
      </trkpt>
      <trkpt lat="42.840830795" lon="-6.811516564">
        <ele>1741.647</ele>
      </trkpt>
      <trkpt lat="42.841026932" lon="-6.81173332">
        <ele>1744.464</ele>
      </trkpt>
      <trkpt lat="42.841063226" lon="-6.811833819">
        <ele>1746.125</ele>
      </trkpt>
      <trkpt lat="42.841182332" lon="-6.811888386">
        <ele>1744.71</ele>
      </trkpt>
      <trkpt lat="42.84136246" lon="-6.812136741">
        <ele>1740.135</ele>
      </trkpt>
      <trkpt lat="42.841410153" lon="-6.812118888">
        <ele>1739.015</ele>
      </trkpt>
      <trkpt lat="42.841542084" lon="-6.81223833">
        <ele>1736.128</ele>
      </trkpt>
      <trkpt lat="42.841667142" lon="-6.812287029">
        <ele>1732.276</ele>
      </trkpt>
      <trkpt lat="42.841969226" lon="-6.812629597">
        <ele>1725.498</ele>
      </trkpt>
      <trkpt lat="42.842127979" lon="-6.812737556">
        <ele>1727.961</ele>
      </trkpt>
      <trkpt lat="42.842362504" lon="-6.812744597">
        <ele>1734.819</ele>
      </trkpt>
      <trkpt lat="42.842389327" lon="-6.812805953">
        <ele>1737.436</ele>
      </trkpt>
      <trkpt lat="42.842445653" lon="-6.81281358">
        <ele>1739.8</ele>
      </trkpt>
      <trkpt lat="42.842509858" lon="-6.812989768">
        <ele>1743.149</ele>
      </trkpt>
      <trkpt lat="42.84270348" lon="-6.81292749">
        <ele>1749.022</ele>
      </trkpt>
      <trkpt lat="42.842808086" lon="-6.812938554">
        <ele>1752.758</ele>
      </trkpt>
      <trkpt lat="42.842851924" lon="-6.812999072">
        <ele>1756.631</ele>
      </trkpt>
      <trkpt lat="42.843000786" lon="-6.813022876">
        <ele>1763.182</ele>
      </trkpt>
      <trkpt lat="42.843055855" lon="-6.813115245">
        <ele>1766.565</ele>
      </trkpt>
      <trkpt lat="42.843403704" lon="-6.813328983">
        <ele>1769.309</ele>
      </trkpt>
      <trkpt lat="42.843459528" lon="-6.813451611">
        <ele>1772.69</ele>
      </trkpt>
      <trkpt lat="42.843431616" lon="-6.813511206">
        <ele>1773.932</ele>
      </trkpt>
      <trkpt lat="42.843450475" lon="-6.813577758">
        <ele>1776.249</ele>
      </trkpt>
      <trkpt lat="42.843526918" lon="-6.813699463">
        <ele>1781.039</ele>
      </trkpt>
      <trkpt lat="42.843584502" lon="-6.813746402">
        <ele>1784.892</ele>
      </trkpt>
      <trkpt lat="42.843826739" lon="-6.813775655">
        <ele>1792.837</ele>
      </trkpt>
      <trkpt lat="42.843900668" lon="-6.813837849">
        <ele>1798.615</ele>
      </trkpt>
      <trkpt lat="42.843870996" lon="-6.813957877">
        <ele>1803.264</ele>
      </trkpt>
      <trkpt lat="42.843881641" lon="-6.814033566">
        <ele>1807.266</ele>
      </trkpt>
      <trkpt lat="42.843962107" lon="-6.814161222">
        <ele>1818.469</ele>
      </trkpt>
      <trkpt lat="42.844046261" lon="-6.814201456">
        <ele>1824.803</ele>
      </trkpt>
      <trkpt lat="42.844056906" lon="-6.814377056">
        <ele>1828.693</ele>
      </trkpt>
      <trkpt lat="42.844094122" lon="-6.814409913">
        <ele>1832.285</ele>
      </trkpt>
      <trkpt lat="42.84411516" lon="-6.814376134">
        <ele>1833.242</ele>
      </trkpt>
      <trkpt lat="42.844132679" lon="-6.814503456">
        <ele>1835.895</ele>
      </trkpt>
      <trkpt lat="42.844223455" lon="-6.814566907">
        <ele>1835.402</ele>
      </trkpt>
      <trkpt lat="42.844262347" lon="-6.814731108">
        <ele>1832.29</ele>
      </trkpt>
      <trkpt lat="42.844227981" lon="-6.814768491">
        <ele>1833.207</ele>
      </trkpt>
      <trkpt lat="42.844269136" lon="-6.814865889">
        <ele>1829.024</ele>
      </trkpt>
      <trkpt lat="42.844268717" lon="-6.815030929">
        <ele>1826.613</ele>
      </trkpt>
      <trkpt lat="42.844308866" lon="-6.815046938">
        <ele>1826.392</ele>
      </trkpt>
      <trkpt lat="42.844381873" lon="-6.815246595">
        <ele>1831.692</ele>
      </trkpt>
      <trkpt lat="42.844409281" lon="-6.815443402">
        <ele>1838.75</ele>
      </trkpt>
      <trkpt lat="42.844384387" lon="-6.815553457">
        <ele>1841.34</ele>
      </trkpt>
      <trkpt lat="42.844495531" lon="-6.815843973">
        <ele>1853.006</ele>
      </trkpt>
      <trkpt lat="42.844486311" lon="-6.815969115">
        <ele>1858.076</ele>
      </trkpt>
      <trkpt lat="42.844528975" lon="-6.815999625">
        <ele>1857.395</ele>
      </trkpt>
      <trkpt lat="42.844478013" lon="-6.816077158">
        <ele>1862.419</ele>
      </trkpt>
      <trkpt lat="42.844558982" lon="-6.816291902">
        <ele>1867.818</ele>
      </trkpt>
      <trkpt lat="42.844565772" lon="-6.816492984">
        <ele>1874.076</ele>
      </trkpt>
      <trkpt lat="42.844634838" lon="-6.816632124">
        <ele>1878.697</ele>
      </trkpt>
      <trkpt lat="42.844632156" lon="-6.816710075">
        <ele>1880.681</ele>
      </trkpt>
      <trkpt lat="42.844692171" lon="-6.816754751">
        <ele>1883.788</ele>
      </trkpt>
      <trkpt lat="42.84468337" lon="-6.81682759">
        <ele>1885.506</ele>
      </trkpt>
      <trkpt lat="42.844843296" lon="-6.817165632">
        <ele>1889.194</ele>
      </trkpt>
      <trkpt lat="42.844803231" lon="-6.817319524">
        <ele>1888.755</ele>
      </trkpt>
      <trkpt lat="42.844520006" lon="-6.817761585">
        <ele>1881.221</ele>
      </trkpt>
      <trkpt lat="42.844549678" lon="-6.81787583">
        <ele>1880.896</ele>
      </trkpt>
      <trkpt lat="42.844449263" lon="-6.818202473">
        <ele>1889.99</ele>
      </trkpt>
      <trkpt lat="42.844351362" lon="-6.818303894">
        <ele>1886.089</ele>
      </trkpt>
      <trkpt lat="42.844278524" lon="-6.818461223">
        <ele>1880.664</ele>
      </trkpt>
      <trkpt lat="42.844222113" lon="-6.818844946">
        <ele>1871.879</ele>
      </trkpt>
      <trkpt lat="42.844235189" lon="-6.819077292">
        <ele>1864.368</ele>
      </trkpt>
      <trkpt lat="42.84420711" lon="-6.819086345">
        <ele>1865.698</ele>
      </trkpt>
      <trkpt lat="42.844227226" lon="-6.819119705">
        <ele>1863.517</ele>
      </trkpt>
      <trkpt lat="42.844194788" lon="-6.81917402">
        <ele>1864.061</ele>
      </trkpt>
      <trkpt lat="42.844172493" lon="-6.819346854">
        <ele>1862.973</ele>
      </trkpt>
      <trkpt lat="42.844221275" lon="-6.819414077">
        <ele>1858.198</ele>
      </trkpt>
      <trkpt lat="42.844282882" lon="-6.819355739">
        <ele>1854.608</ele>
      </trkpt>
      <trkpt lat="42.844254384" lon="-6.819885056">
        <ele>1845.521</ele>
      </trkpt>
      <trkpt lat="42.844280703" lon="-6.82006116">
        <ele>1843.681</ele>
      </trkpt>
      <trkpt lat="42.844314314" lon="-6.820159648">
        <ele>1842.942</ele>
      </trkpt>
      <trkpt lat="42.84418649" lon="-6.820249921">
        <ele>1839.287</ele>
      </trkpt>
      <trkpt lat="42.844151203" lon="-6.820707154">
        <ele>1828.057</ele>
      </trkpt>
      <trkpt lat="42.844163692" lon="-6.820853334">
        <ele>1827.035</ele>
      </trkpt>
      <trkpt lat="42.844279278" lon="-6.820992557">
        <ele>1818.862</ele>
      </trkpt>
      <trkpt lat="42.844364773" lon="-6.821204368">
        <ele>1819.923</ele>
      </trkpt>
      <trkpt lat="42.84442638" lon="-6.821219372">
        <ele>1821.834</ele>
      </trkpt>
      <trkpt lat="42.84442001" lon="-6.821572669">
        <ele>1832.801</ele>
      </trkpt>
      <trkpt lat="42.844463345" lon="-6.821739553">
        <ele>1834.785</ele>
      </trkpt>
      <trkpt lat="42.844438115" lon="-6.821948094">
        <ele>1837.356</ele>
      </trkpt>
      <trkpt lat="42.844468541" lon="-6.822119085">
        <ele>1832.883</ele>
      </trkpt>
      <trkpt lat="42.844432332" lon="-6.822279766">
        <ele>1831.636</ele>
      </trkpt>
      <trkpt lat="42.844386147" lon="-6.822197875">
        <ele>1829.66</ele>
      </trkpt>
      <trkpt lat="42.844385225" lon="-6.822243892">
        <ele>1828.847</ele>
      </trkpt>
      <trkpt lat="42.844346752" lon="-6.822241042">
        <ele>1825.908</ele>
      </trkpt>
      <trkpt lat="42.844437612" lon="-6.822505742">
        <ele>1826.542</ele>
      </trkpt>
      <trkpt lat="42.844395116" lon="-6.823014691">
        <ele>1823.492</ele>
      </trkpt>
      <trkpt lat="42.844421854" lon="-6.823202614">
        <ele>1827.06</ele>
      </trkpt>
      <trkpt lat="42.844406683" lon="-6.823829915">
        <ele>1833.279</ele>
      </trkpt>
      <trkpt lat="42.844440211" lon="-6.823924044">
        <ele>1835.459</ele>
      </trkpt>
      <trkpt lat="42.844217923" lon="-6.824385049">
        <ele>1848.293</ele>
      </trkpt>
      <trkpt lat="42.844133098" lon="-6.824904475">
        <ele>1863.022</ele>
      </trkpt>
      <trkpt lat="42.844121614" lon="-6.825422142">
        <ele>1872.444</ele>
      </trkpt>
      <trkpt lat="42.844159165" lon="-6.825628085">
        <ele>1875.65</ele>
      </trkpt>
      <trkpt lat="42.844132595" lon="-6.825972497">
        <ele>1875.213</ele>
      </trkpt>
      <trkpt lat="42.844203422" lon="-6.826847987">
        <ele>1883.931</ele>
      </trkpt>
      <trkpt lat="42.84414324" lon="-6.827848703">
        <ele>1894.308</ele>
      </trkpt>
      <trkpt lat="42.844111389" lon="-6.828055233">
        <ele>1894.207</ele>
      </trkpt>
      <trkpt lat="42.844027402" lon="-6.828246089">
        <ele>1892.867</ele>
      </trkpt>
      <trkpt lat="42.844035281" lon="-6.828578599">
        <ele>1892.262</ele>
      </trkpt>
      <trkpt lat="42.843823554" lon="-6.82884003">
        <ele>1894.561</ele>
      </trkpt>
      <trkpt lat="42.843763288" lon="-6.829090733">
        <ele>1893.662</ele>
      </trkpt>
      <trkpt lat="42.843674859" lon="-6.829183772">
        <ele>1897.586</ele>
      </trkpt>
      <trkpt lat="42.843535887" lon="-6.829728931">
        <ele>1902.358</ele>
      </trkpt>
      <trkpt lat="42.843348887" lon="-6.830011401">
        <ele>1918.93</ele>
      </trkpt>
      <trkpt lat="42.843373278" lon="-6.83012967">
        <ele>1919.414</ele>
      </trkpt>
      <trkpt lat="42.843267834" lon="-6.830502413">
        <ele>1927.223</ele>
      </trkpt>
      <trkpt lat="42.843180327" lon="-6.830702825">
        <ele>1933.743</ele>
      </trkpt>
      <trkpt lat="42.843133556" lon="-6.830763426">
        <ele>1936.18</ele>
      </trkpt>
      <trkpt lat="42.843123917" lon="-6.830874737">
        <ele>1941.279</ele>
      </trkpt>
      <trkpt lat="42.843229445" lon="-6.830848586">
        <ele>1940.994</ele>
      </trkpt>
      <trkpt lat="42.843281664" lon="-6.830949755">
        <ele>1946.603</ele>
      </trkpt>
      <trkpt lat="42.84323724" lon="-6.831392571">
        <ele>1963.289</ele>
      </trkpt>
      <trkpt lat="42.843403872" lon="-6.831509499">
        <ele>1964.993</ele>
      </trkpt>
      <trkpt lat="42.843481069" lon="-6.831749976">
        <ele>1970.559</ele>
      </trkpt>
      <trkpt lat="42.843759684" lon="-6.832322041">
        <ele>1980.105</ele>
      </trkpt>
      <trkpt lat="42.843956491" lon="-6.832554219">
        <ele>1982.725</ele>
      </trkpt>
      <trkpt lat="42.843992533" lon="-6.832652036">
        <ele>1981.928</ele>
      </trkpt>
      <trkpt lat="42.844118346" lon="-6.832752619">
        <ele>1980.88</ele>
      </trkpt>
      <trkpt lat="42.844265196" lon="-6.833096948">
        <ele>1972.727</ele>
      </trkpt>
      <trkpt lat="42.844417244" lon="-6.833019163">
        <ele>1967.321</ele>
      </trkpt>
      <trkpt lat="42.844466781" lon="-6.832893603">
        <ele>1962.41</ele>
      </trkpt>
      <trkpt lat="42.844521012" lon="-6.832926627">
        <ele>1960.504</ele>
      </trkpt>
      <trkpt lat="42.844695523" lon="-6.832884299">
        <ele>1950.993</ele>
      </trkpt>
      <trkpt lat="42.844856875" lon="-6.832903577">
        <ele>1944.966</ele>
      </trkpt>
      <trkpt lat="42.845051419" lon="-6.832957473">
        <ele>1940.184</ele>
      </trkpt>
      <trkpt lat="42.845348222" lon="-6.832824787">
        <ele>1928.435</ele>
      </trkpt>
      <trkpt lat="42.845627423" lon="-6.832970884">
        <ele>1919.027</ele>
      </trkpt>
      <trkpt lat="42.845722642" lon="-6.832845407">
        <ele>1913.667</ele>
      </trkpt>
      <trkpt lat="42.846013494" lon="-6.832914222">
        <ele>1901.199</ele>
      </trkpt>
      <trkpt lat="42.846170068" lon="-6.832797797">
        <ele>1893.794</ele>
      </trkpt>
      <trkpt lat="42.846386991" lon="-6.832842473">
        <ele>1885.31</ele>
      </trkpt>
      <trkpt lat="42.846521437" lon="-6.832841635">
        <ele>1879.284</ele>
      </trkpt>
      <trkpt lat="42.84664616" lon="-6.832750523">
        <ele>1872.672</ele>
      </trkpt>
      <trkpt lat="42.846714975" lon="-6.832751362">
        <ele>1869.664</ele>
      </trkpt>
      <trkpt lat="42.846762249" lon="-6.832818417">
        <ele>1868.38</ele>
      </trkpt>
      <trkpt lat="42.846840033" lon="-6.832848005">
        <ele>1864.634</ele>
      </trkpt>
      <trkpt lat="42.846866772" lon="-6.832804">
        <ele>1863.541</ele>
      </trkpt>
      <trkpt lat="42.846956626" lon="-6.832861584">
        <ele>1859.172</ele>
      </trkpt>
      <trkpt lat="42.847071625" lon="-6.832778603">
        <ele>1854.503</ele>
      </trkpt>
      <trkpt lat="42.847165" lon="-6.832820931">
        <ele>1850.317</ele>
      </trkpt>
      <trkpt lat="42.847559033" lon="-6.832745243">
        <ele>1836.196</ele>
      </trkpt>
      <trkpt lat="42.847966393" lon="-6.832853202">
        <ele>1827.876</ele>
      </trkpt>
      <trkpt lat="42.848347099" lon="-6.832842305">
        <ele>1824.4</ele>
      </trkpt>
      <trkpt lat="42.848479198" lon="-6.832942804">
        <ele>1825.074</ele>
      </trkpt>
      <trkpt lat="42.848825119" lon="-6.832978595">
        <ele>1826.942</ele>
      </trkpt>
      <trkpt lat="42.849108344" lon="-6.833080184">
        <ele>1828.135</ele>
      </trkpt>
      <trkpt lat="42.849346977" lon="-6.833245894">
        <ele>1828.517</ele>
      </trkpt>
      <trkpt lat="42.849950055" lon="-6.833506403">
        <ele>1835.448</ele>
      </trkpt>
      <trkpt lat="42.850233028" lon="-6.83368762">
        <ele>1840.124</ele>
      </trkpt>
      <trkpt lat="42.850892516" lon="-6.833789963">
        <ele>1857.271</ele>
      </trkpt>
      <trkpt lat="42.851216393" lon="-6.833701786">
        <ele>1863.468</ele>
      </trkpt>
      <trkpt lat="42.851565331" lon="-6.833781498">
        <ele>1870.612</ele>
      </trkpt>
      <trkpt lat="42.85169391" lon="-6.83368477">
        <ele>1873.51</ele>
      </trkpt>
      <trkpt lat="42.851824248" lon="-6.833694074">
        <ele>1875.895</ele>
      </trkpt>
      <trkpt lat="42.852146365" lon="-6.833633892">
        <ele>1878.027</ele>
      </trkpt>
      <trkpt lat="42.852220796" lon="-6.83358511">
        <ele>1876.789</ele>
      </trkpt>
      <trkpt lat="42.852601334" lon="-6.833716789">
        <ele>1873.006</ele>
      </trkpt>
      <trkpt lat="42.852675933" lon="-6.83366348">
        <ele>1872.603</ele>
      </trkpt>
      <trkpt lat="42.85281172" lon="-6.833644873">
        <ele>1871.469</ele>
      </trkpt>
      <trkpt lat="42.852850528" lon="-6.833685525">
        <ele>1870.724</ele>
      </trkpt>
      <trkpt lat="42.852987405" lon="-6.833619894">
        <ele>1871.079</ele>
      </trkpt>
      <trkpt lat="42.853691988" lon="-6.833590893">
        <ele>1866.507</ele>
      </trkpt>
      <trkpt lat="42.854054002" lon="-6.833494166">
        <ele>1857.225</ele>
      </trkpt>
      <trkpt lat="42.85424008" lon="-6.833511684">
        <ele>1855.777</ele>
      </trkpt>
      <trkpt lat="42.854546187" lon="-6.833452675">
        <ele>1855.972</ele>
      </trkpt>
      <trkpt lat="42.854749784" lon="-6.833356703">
        <ele>1859.013</ele>
      </trkpt>
      <trkpt lat="42.854881547" lon="-6.833351422">
        <ele>1859.942</ele>
      </trkpt>
      <trkpt lat="42.855160162" lon="-6.833229968">
        <ele>1855.137</ele>
      </trkpt>
      <trkpt lat="42.8553221" lon="-6.833005752">
        <ele>1846.781</ele>
      </trkpt>
      <trkpt lat="42.85536753" lon="-6.832732083">
        <ele>1836.826</ele>
      </trkpt>
      <trkpt lat="42.85544632" lon="-6.832658323">
        <ele>1830.574</ele>
      </trkpt>
      <trkpt lat="42.855621753" lon="-6.832188014">
        <ele>1815.276</ele>
      </trkpt>
      <trkpt lat="42.855729796" lon="-6.832092628">
        <ele>1804.857</ele>
      </trkpt>
      <trkpt lat="42.8557189" lon="-6.832011994">
        <ele>1806.808</ele>
      </trkpt>
      <trkpt lat="42.855799366" lon="-6.831945023">
        <ele>1805.078</ele>
      </trkpt>
      <trkpt lat="42.855913108" lon="-6.831652578">
        <ele>1796.171</ele>
      </trkpt>
      <trkpt lat="42.856114358" lon="-6.831431463">
        <ele>1793.664</ele>
      </trkpt>
      <trkpt lat="42.856209241" lon="-6.831200961">
        <ele>1789.675</ele>
      </trkpt>
      <trkpt lat="42.85622525" lon="-6.831228789">
        <ele>1789.417</ele>
      </trkpt>
      <trkpt lat="42.856338657" lon="-6.831100211">
        <ele>1789.423</ele>
      </trkpt>
      <trkpt lat="42.856411496" lon="-6.831127033">
        <ele>1787.776</ele>
      </trkpt>
      <trkpt lat="42.856568322" lon="-6.830797708">
        <ele>1777.487</ele>
      </trkpt>
      <trkpt lat="42.85660034" lon="-6.830793768">
        <ele>1777.12</ele>
      </trkpt>
      <trkpt lat="42.85661526" lon="-6.830688156">
        <ele>1775.012</ele>
      </trkpt>
      <trkpt lat="42.856679466" lon="-6.830681702">
        <ele>1774.428</ele>
      </trkpt>
      <trkpt lat="42.856734619" lon="-6.830399651">
        <ele>1766.48</ele>
      </trkpt>
      <trkpt lat="42.856910471" lon="-6.830053898">
        <ele>1760.625</ele>
      </trkpt>
      <trkpt lat="42.857105434" lon="-6.829653913">
        <ele>1756.25</ele>
      </trkpt>
      <trkpt lat="42.857257398" lon="-6.829291312">
        <ele>1756.184</ele>
      </trkpt>
      <trkpt lat="42.857307857" lon="-6.829012698">
        <ele>1754.588</ele>
      </trkpt>
      <trkpt lat="42.857435765" lon="-6.828668201">
        <ele>1754.218</ele>
      </trkpt>
      <trkpt lat="42.857515644" lon="-6.828603577">
        <ele>1755.241</ele>
      </trkpt>
      <trkpt lat="42.857575743" lon="-6.828399478">
        <ele>1754.819</ele>
      </trkpt>
      <trkpt lat="42.857859638" lon="-6.827928834">
        <ele>1746.196</ele>
      </trkpt>
      <trkpt lat="42.858054517" lon="-6.827740744">
        <ele>1740.415</ele>
      </trkpt>
      <trkpt lat="42.858608058" lon="-6.827530609">
        <ele>1733.349</ele>
      </trkpt>
      <trkpt lat="42.85891098" lon="-6.827218635">
        <ele>1740.691</ele>
      </trkpt>
      <trkpt lat="42.859087" lon="-6.827077568">
        <ele>1738.336</ele>
      </trkpt>
      <trkpt lat="42.859840533" lon="-6.82663735">
        <ele>1746.432</ele>
      </trkpt>
      <trkpt lat="42.859960729" lon="-6.826496115">
        <ele>1749.854</ele>
      </trkpt>
      <trkpt lat="42.860048823" lon="-6.826532995">
        <ele>1748.973</ele>
      </trkpt>
      <trkpt lat="42.86029852" lon="-6.826476334">
        <ele>1749.415</ele>
      </trkpt>
      <trkpt lat="42.86035493" lon="-6.826402405">
        <ele>1752.16</ele>
      </trkpt>
      <trkpt lat="42.860502955" lon="-6.826402489">
        <ele>1751.571</ele>
      </trkpt>
      <trkpt lat="42.860631617" lon="-6.826332165">
        <ele>1753.755</ele>
      </trkpt>
      <trkpt lat="42.860819791" lon="-6.826404333">
        <ele>1749.428</ele>
      </trkpt>
      <trkpt lat="42.861012826" lon="-6.826287154">
        <ele>1753.103</ele>
      </trkpt>
      <trkpt lat="42.861109804" lon="-6.82631691">
        <ele>1751.119</ele>
      </trkpt>
      <trkpt lat="42.861267636" lon="-6.826261505">
        <ele>1751.554</ele>
      </trkpt>
      <trkpt lat="42.861406021" lon="-6.826336775">
        <ele>1746.632</ele>
      </trkpt>
      <trkpt lat="42.8618713" lon="-6.826175423">
        <ele>1738.691</ele>
      </trkpt>
      <trkpt lat="42.862106245" lon="-6.826031255">
        <ele>1734.355</ele>
      </trkpt>
      <trkpt lat="42.862169947" lon="-6.825847439">
        <ele>1737.297</ele>
      </trkpt>
      <trkpt lat="42.862346973" lon="-6.825754652">
        <ele>1728.92</ele>
      </trkpt>
      <trkpt lat="42.862341693" lon="-6.825587349">
        <ele>1727.57</ele>
      </trkpt>
      <trkpt lat="42.862466834" lon="-6.825658092">
        <ele>1720.819</ele>
      </trkpt>
      <trkpt lat="42.862490891" lon="-6.825565305">
        <ele>1717.761</ele>
      </trkpt>
      <trkpt lat="42.862562807" lon="-6.825567819">
        <ele>1712.945</ele>
      </trkpt>
      <trkpt lat="42.862566747" lon="-6.825388027">
        <ele>1708.816</ele>
      </trkpt>
      <trkpt lat="42.862515701" lon="-6.825269423">
        <ele>1709.752</ele>
      </trkpt>
      <trkpt lat="42.86252928" lon="-6.825101534">
        <ele>1705.458</ele>
      </trkpt>
      <trkpt lat="42.862558868" lon="-6.824955186">
        <ele>1701.567</ele>
      </trkpt>
      <trkpt lat="42.862714436" lon="-6.824723259">
        <ele>1692.966</ele>
      </trkpt>
      <trkpt lat="42.862701528" lon="-6.824512035">
        <ele>1694.874</ele>
      </trkpt>
      <trkpt lat="42.862839745" lon="-6.824374823">
        <ele>1690.047</ele>
      </trkpt>
      <trkpt lat="42.863103356" lon="-6.823909879">
        <ele>1682.522</ele>
      </trkpt>
      <trkpt lat="42.863473585" lon="-6.823397325">
        <ele>1676.394</ele>
      </trkpt>
      <trkpt lat="42.863919334" lon="-6.822827607">
        <ele>1673.054</ele>
      </trkpt>
      <trkpt lat="42.864312865" lon="-6.82261127">
        <ele>1667.956</ele>
      </trkpt>
      <trkpt lat="42.864823239" lon="-6.822475903">
        <ele>1658.431</ele>
      </trkpt>
      <trkpt lat="42.864973526" lon="-6.8223863">
        <ele>1654.998</ele>
      </trkpt>
      <trkpt lat="42.865100428" lon="-6.822386468">
        <ele>1652.897</ele>
      </trkpt>
      <trkpt lat="42.865311652" lon="-6.822302314">
        <ele>1650.804</ele>
      </trkpt>
      <trkpt lat="42.865909869" lon="-6.822284292">
        <ele>1647.257</ele>
      </trkpt>
      <trkpt lat="42.866296023" lon="-6.822152361">
        <ele>1651.749</ele>
      </trkpt>
      <trkpt lat="42.866438432" lon="-6.821901994">
        <ele>1656.542</ele>
      </trkpt>
      <trkpt lat="42.866539601" lon="-6.821779031">
        <ele>1658.219</ele>
      </trkpt>
      <trkpt lat="42.867103871" lon="-6.821328755">
        <ele>1669.091</ele>
      </trkpt>
      <trkpt lat="42.867239406" lon="-6.820894824">
        <ele>1672.981</ele>
      </trkpt>
      <trkpt lat="42.867429676" lon="-6.820658622">
        <ele>1669.796</ele>
      </trkpt>
      <trkpt lat="42.867749697" lon="-6.820078762">
        <ele>1667.834</ele>
      </trkpt>
      <trkpt lat="42.867765287" lon="-6.819917075">
        <ele>1668.153</ele>
      </trkpt>
      <trkpt lat="42.86783536" lon="-6.8197315">
        <ele>1667.17</ele>
      </trkpt>
      <trkpt lat="42.867849441" lon="-6.819518097">
        <ele>1667.537</ele>
      </trkpt>
      <trkpt lat="42.867896296" lon="-6.819475181">
        <ele>1667.432</ele>
      </trkpt>
      <trkpt lat="42.86803795" lon="-6.819109395">
        <ele>1670.849</ele>
      </trkpt>
      <trkpt lat="42.868229561" lon="-6.818737742">
        <ele>1670.335</ele>
      </trkpt>
      <trkpt lat="42.868346404" lon="-6.818658616">
        <ele>1667.97</ele>
      </trkpt>
      <trkpt lat="42.868459979" lon="-6.818355024">
        <ele>1667.409</ele>
      </trkpt>
      <trkpt lat="42.8686072" lon="-6.8181802">
        <ele>1668.629</ele>
      </trkpt>
      <trkpt lat="42.8687539" lon="-6.8178471">
        <ele>1671.713</ele>
      </trkpt>
      <trkpt lat="42.8692646" lon="-6.8174476">
        <ele>1679.6</ele>
      </trkpt>
      <trkpt lat="42.8701061" lon="-6.8165426">
        <ele>1691.554</ele>
      </trkpt>
      <trkpt lat="42.8704064" lon="-6.8163158">
        <ele>1699.559</ele>
      </trkpt>
      <trkpt lat="42.8707072" lon="-6.8162699">
        <ele>1703.388</ele>
      </trkpt>
      <trkpt lat="42.870777" lon="-6.8161298">
        <ele>1704.393</ele>
      </trkpt>
      <trkpt lat="42.8708544" lon="-6.8153618">
        <ele>1696.444</ele>
      </trkpt>
      <trkpt lat="42.8708276" lon="-6.8151996">
        <ele>1696.782</ele>
      </trkpt>
      <trkpt lat="42.870871" lon="-6.8150088">
        <ele>1694.292</ele>
      </trkpt>
      <trkpt lat="42.8707445" lon="-6.8144214">
        <ele>1699.535</ele>
      </trkpt>
      <trkpt lat="42.8709042" lon="-6.8136933">
        <ele>1708.91</ele>
      </trkpt>
      <trkpt lat="42.8708564" lon="-6.8136529">
        <ele>1712.609</ele>
      </trkpt>
      <trkpt lat="42.8708717" lon="-6.8134103">
        <ele>1719.049</ele>
      </trkpt>
      <trkpt lat="42.8709081" lon="-6.8131232">
        <ele>1725.327</ele>
      </trkpt>
      <trkpt lat="42.8711682" lon="-6.8122404">
        <ele>1744.69</ele>
      </trkpt>
      <trkpt lat="42.8712354" lon="-6.8118864">
        <ele>1749.919</ele>
      </trkpt>
      <trkpt lat="42.8712413" lon="-6.8115881">
        <ele>1754.078</ele>
      </trkpt>
      <trkpt lat="42.871333" lon="-6.8113077">
        <ele>1758.326</ele>
      </trkpt>
      <trkpt lat="42.8713195" lon="-6.8110874">
        <ele>1756.211</ele>
      </trkpt>
      <trkpt lat="42.8712174" lon="-6.8108048">
        <ele>1749.983</ele>
      </trkpt>
      <trkpt lat="42.8711728" lon="-6.8105499">
        <ele>1749.09</ele>
      </trkpt>
      <trkpt lat="42.8711262" lon="-6.809786">
        <ele>1749.771</ele>
      </trkpt>
      <trkpt lat="42.8710105" lon="-6.8090917">
        <ele>1747.249</ele>
      </trkpt>
      <trkpt lat="42.8709245" lon="-6.8087884">
        <ele>1747.92</ele>
      </trkpt>
      <trkpt lat="42.8709031" lon="-6.80834">
        <ele>1750.436</ele>
      </trkpt>
      <trkpt lat="42.870806" lon="-6.8076197">
        <ele>1745.493</ele>
      </trkpt>
      <trkpt lat="42.8706194" lon="-6.8068929">
        <ele>1732.029</ele>
      </trkpt>
      <trkpt lat="42.8706087" lon="-6.8065934">
        <ele>1732.275</ele>
      </trkpt>
      <trkpt lat="42.8706586" lon="-6.8061547">
        <ele>1731.85</ele>
      </trkpt>
      <trkpt lat="42.8705872" lon="-6.8057939">
        <ele>1736.214</ele>
      </trkpt>
      <trkpt lat="42.8705887" lon="-6.8055668">
        <ele>1733.845</ele>
      </trkpt>
      <trkpt lat="42.8707366" lon="-6.8052281">
        <ele>1719.395</ele>
      </trkpt>
      <trkpt lat="42.8707359" lon="-6.8051146">
        <ele>1717.715</ele>
      </trkpt>
      <trkpt lat="42.8708789" lon="-6.8045543">
        <ele>1709.937</ele>
      </trkpt>
      <trkpt lat="42.8708844" lon="-6.8042615">
        <ele>1706.255</ele>
      </trkpt>
      <trkpt lat="42.8711325" lon="-6.8038328">
        <ele>1706.32</ele>
      </trkpt>
      <trkpt lat="42.871118" lon="-6.8037361">
        <ele>1707.009</ele>
      </trkpt>
      <trkpt lat="42.8711729" lon="-6.803591">
        <ele>1703.353</ele>
      </trkpt>
      <trkpt lat="42.8711811" lon="-6.8033453">
        <ele>1702.027</ele>
      </trkpt>
      <trkpt lat="42.8712386" lon="-6.8031735">
        <ele>1701.149</ele>
      </trkpt>
      <trkpt lat="42.8715362" lon="-6.8026317">
        <ele>1710.321</ele>
      </trkpt>
      <trkpt lat="42.871941" lon="-6.8020847">
        <ele>1731.336</ele>
      </trkpt>
      <trkpt lat="42.8719759" lon="-6.8019116">
        <ele>1733.736</ele>
      </trkpt>
      <trkpt lat="42.8718473" lon="-6.8016727">
        <ele>1723.345</ele>
      </trkpt>
      <trkpt lat="42.8717356" lon="-6.8013897">
        <ele>1714.767</ele>
      </trkpt>
      <trkpt lat="42.8715207" lon="-6.8011435">
        <ele>1708.294</ele>
      </trkpt>
      <trkpt lat="42.871401" lon="-6.8008021">
        <ele>1708.529</ele>
      </trkpt>
      <trkpt lat="42.8711672" lon="-6.8005043">
        <ele>1707.608</ele>
      </trkpt>
      <trkpt lat="42.8710754" lon="-6.8001888">
        <ele>1704.9</ele>
      </trkpt>
      <trkpt lat="42.8709321" lon="-6.7999435">
        <ele>1707.212</ele>
      </trkpt>
      <trkpt lat="42.8709258" lon="-6.7996744">
        <ele>1710.686</ele>
      </trkpt>
      <trkpt lat="42.8708689" lon="-6.7994258">
        <ele>1716.641</ele>
      </trkpt>
      <trkpt lat="42.8708926" lon="-6.7992434">
        <ele>1716.904</ele>
      </trkpt>
      <trkpt lat="42.8707507" lon="-6.7989287">
        <ele>1724.944</ele>
      </trkpt>
      <trkpt lat="42.8706767" lon="-6.7983266">
        <ele>1740.436</ele>
      </trkpt>
      <trkpt lat="42.8706224" lon="-6.7983002">
        <ele>1743.36</ele>
      </trkpt>
      <trkpt lat="42.8706031" lon="-6.7981638">
        <ele>1748.016</ele>
      </trkpt>
      <trkpt lat="42.8706741" lon="-6.7978869">
        <ele>1751.866</ele>
      </trkpt>
      <trkpt lat="42.8707149" lon="-6.7971635">
        <ele>1760.104</ele>
      </trkpt>
      <trkpt lat="42.8707181" lon="-6.7966961">
        <ele>1767.973</ele>
      </trkpt>
      <trkpt lat="42.8706585" lon="-6.7961923">
        <ele>1771.408</ele>
      </trkpt>
      <trkpt lat="42.870676" lon="-6.7961206">
        <ele>1771.36</ele>
      </trkpt>
      <trkpt lat="42.8705433" lon="-6.7957577">
        <ele>1775.884</ele>
      </trkpt>
      <trkpt lat="42.870612" lon="-6.795097">
        <ele>1770.575</ele>
      </trkpt>
      <trkpt lat="42.8708211" lon="-6.7942113">
        <ele>1759.595</ele>
      </trkpt>
      <trkpt lat="42.8708504" lon="-6.7936898">
        <ele>1754.873</ele>
      </trkpt>
      <trkpt lat="42.8708039" lon="-6.793275">
        <ele>1753.448</ele>
      </trkpt>
      <trkpt lat="42.8708485" lon="-6.7929642">
        <ele>1750.387</ele>
      </trkpt>
      <trkpt lat="42.8709595" lon="-6.792696">
        <ele>1746.696</ele>
      </trkpt>
      <trkpt lat="42.8709447" lon="-6.7924943">
        <ele>1749.031</ele>
      </trkpt>
      <trkpt lat="42.8709784" lon="-6.7924455">
        <ele>1747.05</ele>
      </trkpt>
      <trkpt lat="42.8710281" lon="-6.7920636">
        <ele>1749.104</ele>
      </trkpt>
      <trkpt lat="42.8711011" lon="-6.791813">
        <ele>1750.065</ele>
      </trkpt>
      <trkpt lat="42.871234" lon="-6.7915559">
        <ele>1749.522</ele>
      </trkpt>
      <trkpt lat="42.8712163" lon="-6.791489">
        <ele>1753.908</ele>
      </trkpt>
      <trkpt lat="42.8713113" lon="-6.7912517">
        <ele>1751.61</ele>
      </trkpt>
      <trkpt lat="42.8714745" lon="-6.7910301">
        <ele>1742.676</ele>
      </trkpt>
      <trkpt lat="42.8714743" lon="-6.7909001">
        <ele>1745.642</ele>
      </trkpt>
      <trkpt lat="42.8715375" lon="-6.7907102">
        <ele>1746.793</ele>
      </trkpt>
      <trkpt lat="42.8717862" lon="-6.7904903">
        <ele>1736.072</ele>
      </trkpt>
      <trkpt lat="42.8718297" lon="-6.7902198">
        <ele>1742.104</ele>
      </trkpt>
      <trkpt lat="42.8720364" lon="-6.7895305">
        <ele>1748.027</ele>
      </trkpt>
      <trkpt lat="42.8723681" lon="-6.7888534">
        <ele>1752.27</ele>
      </trkpt>
      <trkpt lat="42.8725647" lon="-6.7881093">
        <ele>1750.585</ele>
      </trkpt>
      <trkpt lat="42.8728176" lon="-6.7860768">
        <ele>1758.032</ele>
      </trkpt>
      <trkpt lat="42.8731085" lon="-6.7855535">
        <ele>1761.675</ele>
      </trkpt>
      <trkpt lat="42.8732263" lon="-6.7853831">
        <ele>1755.063</ele>
      </trkpt>
      <trkpt lat="42.8733315" lon="-6.7852594">
        <ele>1759.321</ele>
      </trkpt>
      <trkpt lat="42.8735697" lon="-6.7850558">
        <ele>1754.666</ele>
      </trkpt>
      <trkpt lat="42.8736204" lon="-6.7849122">
        <ele>1755.707</ele>
      </trkpt>
      <trkpt lat="42.8736156" lon="-6.7846687">
        <ele>1754.766</ele>
      </trkpt>
      <trkpt lat="42.8737309" lon="-6.7845107">
        <ele>1750.361</ele>
      </trkpt>
      <trkpt lat="42.8740312" lon="-6.7839742">
        <ele>1751.45</ele>
      </trkpt>
      <trkpt lat="42.8742069" lon="-6.7835318">
        <ele>1753.921</ele>
      </trkpt>
      <trkpt lat="42.8743409" lon="-6.7833995">
        <ele>1751.293</ele>
      </trkpt>
      <trkpt lat="42.8743983" lon="-6.7832751">
        <ele>1753.683</ele>
      </trkpt>
      <trkpt lat="42.8743825" lon="-6.7831823">
        <ele>1754.784</ele>
      </trkpt>
      <trkpt lat="42.8746012" lon="-6.7826293">
        <ele>1754.755</ele>
      </trkpt>
      <trkpt lat="42.8747954" lon="-6.7822596">
        <ele>1756.909</ele>
      </trkpt>
      <trkpt lat="42.8749125" lon="-6.7821312">
        <ele>1758.965</ele>
      </trkpt>
      <trkpt lat="42.8753215" lon="-6.7814497">
        <ele>1771.384</ele>
      </trkpt>
      <trkpt lat="42.8754512" lon="-6.7810288">
        <ele>1780.862</ele>
      </trkpt>
      <trkpt lat="42.8755516" lon="-6.7802787">
        <ele>1797.873</ele>
      </trkpt>
      <trkpt lat="42.8757947" lon="-6.780016">
        <ele>1802.563</ele>
      </trkpt>
      <trkpt lat="42.87598" lon="-6.7796475">
        <ele>1807.376</ele>
      </trkpt>
      <trkpt lat="42.8761701" lon="-6.7796928">
        <ele>1812.41</ele>
      </trkpt>
      <trkpt lat="42.8766824" lon="-6.779511">
        <ele>1821.001</ele>
      </trkpt>
      <trkpt lat="42.8769248" lon="-6.7793173">
        <ele>1826.309</ele>
      </trkpt>
      <trkpt lat="42.8772642" lon="-6.7793904">
        <ele>1839.106</ele>
      </trkpt>
      <trkpt lat="42.8772943" lon="-6.7793281">
        <ele>1842.381</ele>
      </trkpt>
      <trkpt lat="42.8774822" lon="-6.7792632">
        <ele>1850.014</ele>
      </trkpt>
      <trkpt lat="42.87747" lon="-6.7791806">
        <ele>1853.495</ele>
      </trkpt>
      <trkpt lat="42.8775366" lon="-6.7791745">
        <ele>1855.288</ele>
      </trkpt>
      <trkpt lat="42.8775642" lon="-6.7789976">
        <ele>1864.209</ele>
      </trkpt>
      <trkpt lat="42.8775314" lon="-6.7789343">
        <ele>1866.535</ele>
      </trkpt>
      <trkpt lat="42.8776067" lon="-6.778782">
        <ele>1875.692</ele>
      </trkpt>
      <trkpt lat="42.8775381" lon="-6.7786206">
        <ele>1882.345</ele>
      </trkpt>
      <trkpt lat="42.8775642" lon="-6.7784731">
        <ele>1886.026</ele>
      </trkpt>
      <trkpt lat="42.8777246" lon="-6.7783402">
        <ele>1897.663</ele>
      </trkpt>
      <trkpt lat="42.8780037" lon="-6.7782962">
        <ele>1904.84</ele>
      </trkpt>
      <trkpt lat="42.8781433" lon="-6.7784117">
        <ele>1907.597</ele>
      </trkpt>
      <trkpt lat="42.8781883" lon="-6.7785391">
        <ele>1904.903</ele>
      </trkpt>
      <trkpt lat="42.8786546" lon="-6.7785256">
        <ele>1912.347</ele>
      </trkpt>
      <trkpt lat="42.8786838" lon="-6.7784476">
        <ele>1915.26</ele>
      </trkpt>
      <trkpt lat="42.8787579" lon="-6.7784345">
        <ele>1917.822</ele>
      </trkpt>
      <trkpt lat="42.8790817" lon="-6.7784501">
        <ele>1920.372</ele>
      </trkpt>
      <trkpt lat="42.879150761" lon="-6.778494464">
        <ele>1919.987</ele>
      </trkpt>
      <trkpt lat="42.879185798" lon="-6.778460518">
        <ele>1920.425</ele>
      </trkpt>
      <trkpt lat="42.8795752" lon="-6.7787695">
        <ele>1915.649</ele>
      </trkpt>
      <trkpt lat="42.8800364" lon="-6.7789193">
        <ele>1910.501</ele>
      </trkpt>
      <trkpt lat="42.8800856" lon="-6.7788695">
        <ele>1914.609</ele>
      </trkpt>
      <trkpt lat="42.8801569" lon="-6.7789139">
        <ele>1914.207</ele>
      </trkpt>
      <trkpt lat="42.8803506" lon="-6.7788325">
        <ele>1921.46</ele>
      </trkpt>
      <trkpt lat="42.8804531" lon="-6.7786935">
        <ele>1924.667</ele>
      </trkpt>
      <trkpt lat="42.8804736" lon="-6.7785187">
        <ele>1927.423</ele>
      </trkpt>
      <trkpt lat="42.8803469" lon="-6.7785315">
        <ele>1933.846</ele>
      </trkpt>
      <trkpt lat="42.8803304" lon="-6.7784744">
        <ele>1936.703</ele>
      </trkpt>
      <trkpt lat="42.8803614" lon="-6.778415">
        <ele>1936.61</ele>
      </trkpt>
      <trkpt lat="42.880331" lon="-6.7783243">
        <ele>1941.581</ele>
      </trkpt>
      <trkpt lat="42.8802505" lon="-6.7782848">
        <ele>1945.796</ele>
      </trkpt>
      <trkpt lat="42.8802193" lon="-6.778198">
        <ele>1946.286</ele>
      </trkpt>
      <trkpt lat="42.8801686" lon="-6.7778319">
        <ele>1946.564</ele>
      </trkpt>
      <trkpt lat="42.880218" lon="-6.7776725">
        <ele>1946.459</ele>
      </trkpt>
      <trkpt lat="42.8801381" lon="-6.7778125">
        <ele>1945.99</ele>
      </trkpt>
      <trkpt lat="42.8801725" lon="-6.7778181">
        <ele>1946.475</ele>
      </trkpt>
      <trkpt lat="42.8801765" lon="-6.7779662">
        <ele>1947.788</ele>
      </trkpt>
      <trkpt lat="42.8799708" lon="-6.7780357">
        <ele>1950.596</ele>
      </trkpt>
      <trkpt lat="42.8799995" lon="-6.7780657">
        <ele>1952.57</ele>
      </trkpt>
      <trkpt lat="42.8799694" lon="-6.7781297">
        <ele>1948.654</ele>
      </trkpt>
      <trkpt lat="42.8798785" lon="-6.7782128">
        <ele>1942.746</ele>
      </trkpt>
      <trkpt lat="42.8797576" lon="-6.7782384">
        <ele>1938.69</ele>
      </trkpt>
      <trkpt lat="42.879732" lon="-6.7783159">
        <ele>1938.105</ele>
      </trkpt>
      <trkpt lat="42.8795092" lon="-6.7784361">
        <ele>1928.075</ele>
      </trkpt>
      <trkpt lat="42.8793057" lon="-6.7783757">
        <ele>1923.699</ele>
      </trkpt>
      <trkpt lat="42.879146654" lon="-6.778380889">
        <ele>1920.249</ele>
      </trkpt>
      <trkpt lat="42.8792461" lon="-6.7780094">
        <ele>1907.032</ele>
      </trkpt>
      <trkpt lat="42.8791719" lon="-6.7776659">
        <ele>1890.378</ele>
      </trkpt>
      <trkpt lat="42.8792381" lon="-6.7775727">
        <ele>1889.282</ele>
      </trkpt>
      <trkpt lat="42.8790593" lon="-6.7772125">
        <ele>1869.614</ele>
      </trkpt>
      <trkpt lat="42.8790253" lon="-6.7769775">
        <ele>1861.432</ele>
      </trkpt>
      <trkpt lat="42.878916" lon="-6.776755">
        <ele>1853.335</ele>
      </trkpt>
      <trkpt lat="42.8788734" lon="-6.7765052">
        <ele>1847.034</ele>
      </trkpt>
      <trkpt lat="42.8789751" lon="-6.7762452">
        <ele>1841.343</ele>
      </trkpt>
      <trkpt lat="42.8789364" lon="-6.7763053">
        <ele>1842.699</ele>
      </trkpt>
      <trkpt lat="42.8788787" lon="-6.7762304">
        <ele>1838.477</ele>
      </trkpt>
      <trkpt lat="42.8789143" lon="-6.776034">
        <ele>1831.981</ele>
      </trkpt>
      <trkpt lat="42.8789444" lon="-6.7759536">
        <ele>1830.042</ele>
      </trkpt>
      <trkpt lat="42.8790479" lon="-6.7758659">
        <ele>1830.257</ele>
      </trkpt>
      <trkpt lat="42.8790887" lon="-6.7757086">
        <ele>1827.331</ele>
      </trkpt>
      <trkpt lat="42.8790518" lon="-6.7756607">
        <ele>1824.928</ele>
      </trkpt>
      <trkpt lat="42.8790533" lon="-6.7755475">
        <ele>1822.182</ele>
      </trkpt>
      <trkpt lat="42.8788567" lon="-6.7753991">
        <ele>1813.786</ele>
      </trkpt>
      <trkpt lat="42.8787898" lon="-6.7751984">
        <ele>1809.685</ele>
      </trkpt>
      <trkpt lat="42.8788899" lon="-6.7745667">
        <ele>1796.15</ele>
      </trkpt>
      <trkpt lat="42.8790632" lon="-6.7743115">
        <ele>1803.402</ele>
      </trkpt>
      <trkpt lat="42.879169" lon="-6.7737844">
        <ele>1803.679</ele>
      </trkpt>
      <trkpt lat="42.8793089" lon="-6.7735558">
        <ele>1810.444</ele>
      </trkpt>
      <trkpt lat="42.8793586" lon="-6.7732801">
        <ele>1809.715</ele>
      </trkpt>
      <trkpt lat="42.8796659" lon="-6.7727407">
        <ele>1825.509</ele>
      </trkpt>
      <trkpt lat="42.8796841" lon="-6.772569">
        <ele>1824.232</ele>
      </trkpt>
      <trkpt lat="42.8796216" lon="-6.771908">
        <ele>1822.041</ele>
      </trkpt>
      <trkpt lat="42.8797347" lon="-6.771076">
        <ele>1839.011</ele>
      </trkpt>
      <trkpt lat="42.879711" lon="-6.771088">
        <ele>1838.487</ele>
      </trkpt>
      <trkpt lat="42.8797972" lon="-6.7709565">
        <ele>1835.161</ele>
      </trkpt>
      <trkpt lat="42.8798781" lon="-6.7703052">
        <ele>1815.806</ele>
      </trkpt>
      <trkpt lat="42.8798482" lon="-6.7700182">
        <ele>1808.686</ele>
      </trkpt>
      <trkpt lat="42.8799239" lon="-6.7696255">
        <ele>1799.142</ele>
      </trkpt>
      <trkpt lat="42.8800994" lon="-6.769132">
        <ele>1790.398</ele>
      </trkpt>
      <trkpt lat="42.8800883" lon="-6.7688418">
        <ele>1786.609</ele>
      </trkpt>
      <trkpt lat="42.8801475" lon="-6.7686535">
        <ele>1783.06</ele>
      </trkpt>
      <trkpt lat="42.880107" lon="-6.7685145">
        <ele>1780.93</ele>
      </trkpt>
      <trkpt lat="42.8800964" lon="-6.7683788">
        <ele>1778.506</ele>
      </trkpt>
      <trkpt lat="42.8801108" lon="-6.7675698">
        <ele>1766.4</ele>
      </trkpt>
      <trkpt lat="42.8799884" lon="-6.7672781">
        <ele>1756.041</ele>
      </trkpt>
      <trkpt lat="42.8799878" lon="-6.7670944">
        <ele>1749.763</ele>
      </trkpt>
      <trkpt lat="42.8798692" lon="-6.7664943">
        <ele>1723.111</ele>
      </trkpt>
      <trkpt lat="42.8797351" lon="-6.7663363">
        <ele>1713.022</ele>
      </trkpt>
      <trkpt lat="42.8797745" lon="-6.7662617">
        <ele>1713.532</ele>
      </trkpt>
      <trkpt lat="42.8796667" lon="-6.7662262">
        <ele>1707.315</ele>
      </trkpt>
      <trkpt lat="42.879278669" lon="-6.765770735">
        <ele>1688.502</ele>
      </trkpt>
      <trkpt lat="42.879300546" lon="-6.76562422">
        <ele>1685.783</ele>
      </trkpt>
      <trkpt lat="42.879263498" lon="-6.765463287">
        <ele>1683.542</ele>
      </trkpt>
      <trkpt lat="42.879112959" lon="-6.765422886">
        <ele>1680.095</ele>
      </trkpt>
      <trkpt lat="42.878957558" lon="-6.76520546">
        <ele>1674.663</ele>
      </trkpt>
      <trkpt lat="42.878715908" lon="-6.764985099">
        <ele>1669.69</ele>
      </trkpt>
      <trkpt lat="42.878484568" lon="-6.764933132">
        <ele>1667.119</ele>
      </trkpt>
      <trkpt lat="42.878441066" lon="-6.764993398">
        <ele>1665.652</ele>
      </trkpt>
      <trkpt lat="42.878193213" lon="-6.765075373">
        <ele>1663.82</ele>
      </trkpt>
      <trkpt lat="42.878115512" lon="-6.765165646">
        <ele>1662.446</ele>
      </trkpt>
      <trkpt lat="42.877983665" lon="-6.765360106">
        <ele>1658.479</ele>
      </trkpt>
      <trkpt lat="42.877710247" lon="-6.765811387">
        <ele>1648.231</ele>
      </trkpt>
      <trkpt lat="42.877736147" lon="-6.765941223">
        <ele>1644.743</ele>
      </trkpt>
      <trkpt lat="42.877709577" lon="-6.766200559">
        <ele>1637.014</ele>
      </trkpt>
      <trkpt lat="42.877657777" lon="-6.766296448">
        <ele>1634.14</ele>
      </trkpt>
      <trkpt lat="42.877599774" lon="-6.766299633">
        <ele>1634.121</ele>
      </trkpt>
      <trkpt lat="42.877592817" lon="-6.766362078">
        <ele>1632.406</ele>
      </trkpt>
      <trkpt lat="42.877658196" lon="-6.766587803">
        <ele>1626.826</ele>
      </trkpt>
      <trkpt lat="42.877625758" lon="-6.766713448">
        <ele>1623.866</ele>
      </trkpt>
      <trkpt lat="42.877645791" lon="-6.766760806">
        <ele>1622.839</ele>
      </trkpt>
      <trkpt lat="42.877581669" lon="-6.766939173">
        <ele>1617.613</ele>
      </trkpt>
      <trkpt lat="42.877553422" lon="-6.767270258">
        <ele>1606.733</ele>
      </trkpt>
      <trkpt lat="42.877432723" lon="-6.767626153">
        <ele>1601.022</ele>
      </trkpt>
      <trkpt lat="42.877479158" lon="-6.767796641">
        <ele>1600.93</ele>
      </trkpt>
      <trkpt lat="42.877400704" lon="-6.768094534">
        <ele>1601.13</ele>
      </trkpt>
      <trkpt lat="42.877284531" lon="-6.768337525">
        <ele>1600.718</ele>
      </trkpt>
      <trkpt lat="42.877073642" lon="-6.768449256">
        <ele>1600.047</ele>
      </trkpt>
      <trkpt lat="42.87699502" lon="-6.76844473">
        <ele>1599.401</ele>
      </trkpt>
      <trkpt lat="42.876912793" lon="-6.768511701">
        <ele>1598.129</ele>
      </trkpt>
      <trkpt lat="42.876841966" lon="-6.768712196">
        <ele>1598.903</ele>
      </trkpt>
      <trkpt lat="42.876763428" lon="-6.768749161">
        <ele>1598.388</ele>
      </trkpt>
      <trkpt lat="42.876543151" lon="-6.76868747">
        <ele>1590.467</ele>
      </trkpt>
      <trkpt lat="42.876407113" lon="-6.768728122">
        <ele>1588.158</ele>
      </trkpt>
      <trkpt lat="42.876328155" lon="-6.768677915">
        <ele>1584.018</ele>
      </trkpt>
      <trkpt lat="42.876316337" lon="-6.768601136">
        <ele>1581.136</ele>
      </trkpt>
      <trkpt lat="42.876088601" lon="-6.768569704">
        <ele>1574.977</ele>
      </trkpt>
      <trkpt lat="42.875937307" lon="-6.768616559">
        <ele>1571.528</ele>
      </trkpt>
      <trkpt lat="42.875888776" lon="-6.768709598">
        <ele>1572.988</ele>
      </trkpt>
      <trkpt lat="42.875688616" lon="-6.768762153">
        <ele>1569.462</ele>
      </trkpt>
      <trkpt lat="42.875442524" lon="-6.768948147">
        <ele>1566.543</ele>
      </trkpt>
      <trkpt lat="42.875398267" lon="-6.769019393">
        <ele>1566.44</ele>
      </trkpt>
      <trkpt lat="42.875329452" lon="-6.769434717">
        <ele>1570.487</ele>
      </trkpt>
      <trkpt lat="42.875287626" lon="-6.769496324">
        <ele>1566.539</ele>
      </trkpt>
      <trkpt lat="42.875304557" lon="-6.769633703">
        <ele>1567.31</ele>
      </trkpt>
      <trkpt lat="42.875378905" lon="-6.769662034">
        <ele>1574.676</ele>
      </trkpt>
      <trkpt lat="42.875358034" lon="-6.769887256">
        <ele>1567.612</ele>
      </trkpt>
      <trkpt lat="42.87528595" lon="-6.769955652">
        <ele>1559.638</ele>
      </trkpt>
      <trkpt lat="42.875234317" lon="-6.769947102">
        <ele>1556.274</ele>
      </trkpt>
      <trkpt lat="42.875206824" lon="-6.769884657">
        <ele>1555.407</ele>
      </trkpt>
      <trkpt lat="42.875155108" lon="-6.769913407">
        <ele>1551.399</ele>
      </trkpt>
      <trkpt lat="42.875089729" lon="-6.770100156">
        <ele>1545.992</ele>
      </trkpt>
      <trkpt lat="42.875099201" lon="-6.770262178">
        <ele>1545.925</ele>
      </trkpt>
      <trkpt lat="42.875026111" lon="-6.770414226">
        <ele>1541.097</ele>
      </trkpt>
      <trkpt lat="42.874925612" lon="-6.770246085">
        <ele>1534.264</ele>
      </trkpt>
      <trkpt lat="42.874826621" lon="-6.770175844">
        <ele>1529.28</ele>
      </trkpt>
      <trkpt lat="42.874763003" lon="-6.770066712">
        <ele>1526.185</ele>
      </trkpt>
      <trkpt lat="42.874763506" lon="-6.769989263">
        <ele>1526.554</ele>
      </trkpt>
      <trkpt lat="42.874713968" lon="-6.769943414">
        <ele>1523.913</ele>
      </trkpt>
      <trkpt lat="42.874318594" lon="-6.769835372">
        <ele>1513.826</ele>
      </trkpt>
      <trkpt lat="42.874031262" lon="-6.770059252">
        <ele>1510.403</ele>
      </trkpt>
      <trkpt lat="42.873826576" lon="-6.770291431">
        <ele>1509.464</ele>
      </trkpt>
      <trkpt lat="42.873536395" lon="-6.770482119">
        <ele>1507.858</ele>
      </trkpt>
      <trkpt lat="42.873450732" lon="-6.770503242">
        <ele>1508.594</ele>
      </trkpt>
      <trkpt lat="42.873248393" lon="-6.770446748">
        <ele>1510.134</ele>
      </trkpt>
      <trkpt lat="42.873162646" lon="-6.770281205">
        <ele>1509.868</ele>
      </trkpt>
      <trkpt lat="42.87304664" lon="-6.770220101">
        <ele>1510.274</ele>
      </trkpt>
      <trkpt lat="42.872986877" lon="-6.770071406">
        <ele>1507.846</ele>
      </trkpt>
      <trkpt lat="42.87281706" lon="-6.769999741">
        <ele>1504.563</ele>
      </trkpt>
      <trkpt lat="42.872826699" lon="-6.76989153">
        <ele>1503.533</ele>
      </trkpt>
      <trkpt lat="42.872761991" lon="-6.769752558">
        <ele>1501.441</ele>
      </trkpt>
      <trkpt lat="42.872743048" lon="-6.769590871">
        <ele>1500.6</ele>
      </trkpt>
      <trkpt lat="42.872785879" lon="-6.769301277">
        <ele>1501.532</ele>
      </trkpt>
      <trkpt lat="42.872705245" lon="-6.769113438">
        <ele>1500.638</ele>
      </trkpt>
      <trkpt lat="42.87268538" lon="-6.768953679">
        <ele>1501.208</ele>
      </trkpt>
      <trkpt lat="42.87263534" lon="-6.768841948">
        <ele>1499.759</ele>
      </trkpt>
      <trkpt lat="42.872535009" lon="-6.768753687">
        <ele>1496.037</ele>
      </trkpt>
      <trkpt lat="42.872524783" lon="-6.768599376">
        <ele>1497.335</ele>
      </trkpt>
      <trkpt lat="42.872444149" lon="-6.768603735">
        <ele>1494.143</ele>
      </trkpt>
      <trkpt lat="42.872347087" lon="-6.768537601">
        <ele>1491.937</ele>
      </trkpt>
      <trkpt lat="42.872207193" lon="-6.768598203">
        <ele>1486.016</ele>
      </trkpt>
      <trkpt lat="42.872008793" lon="-6.76880138">
        <ele>1481.557</ele>
      </trkpt>
      <trkpt lat="42.871704027" lon="-6.768768691">
        <ele>1481.24</ele>
      </trkpt>
      <trkpt lat="42.871580981" lon="-6.769054011">
        <ele>1478.878</ele>
      </trkpt>
      <trkpt lat="42.871466232" lon="-6.769261463">
        <ele>1475.84</ele>
      </trkpt>
      <trkpt lat="42.871359531" lon="-6.769193318">
        <ele>1476.922</ele>
      </trkpt>
      <trkpt lat="42.871284429" lon="-6.769218547">
        <ele>1477.668</ele>
      </trkpt>
      <trkpt lat="42.871119389" lon="-6.769458186">
        <ele>1471.559</ele>
      </trkpt>
      <trkpt lat="42.871014867" lon="-6.769497162">
        <ele>1472.214</ele>
      </trkpt>
      <trkpt lat="42.870978825" lon="-6.769668404">
        <ele>1467.931</ele>
      </trkpt>
      <trkpt lat="42.870997265" lon="-6.769757336">
        <ele>1465.365</ele>
      </trkpt>
      <trkpt lat="42.870908082" lon="-6.769832019">
        <ele>1465.389</ele>
      </trkpt>
      <trkpt lat="42.870923504" lon="-6.769961519">
        <ele>1462.488</ele>
      </trkpt>
      <trkpt lat="42.870849827" lon="-6.770026814">
        <ele>1461.781</ele>
      </trkpt>
      <trkpt lat="42.870843709" lon="-6.770106945">
        <ele>1458.817</ele>
      </trkpt>
      <trkpt lat="42.8707588" lon="-6.770197889">
        <ele>1455.704</ele>
      </trkpt>
      <trkpt lat="42.870630389" lon="-6.770178024">
        <ele>1457.787</ele>
      </trkpt>
      <trkpt lat="42.8707215" lon="-6.770253545">
        <ele>1453.205</ele>
      </trkpt>
      <trkpt lat="42.87070415" lon="-6.770366533">
        <ele>1449.065</ele>
      </trkpt>
      <trkpt lat="42.870767936" lon="-6.770390337">
        <ele>1449.115</ele>
      </trkpt>
      <trkpt lat="42.870734157" lon="-6.770455129">
        <ele>1446.756</ele>
      </trkpt>
      <trkpt lat="42.870573224" lon="-6.770495111">
        <ele>1441.494</ele>
      </trkpt>
      <trkpt lat="42.870483454" lon="-6.770620169">
        <ele>1435.655</ele>
      </trkpt>
      <trkpt lat="42.870381782" lon="-6.770544983">
        <ele>1432.95</ele>
      </trkpt>
      <trkpt lat="42.870297125" lon="-6.770637352">
        <ele>1428.825</ele>
      </trkpt>
      <trkpt lat="42.87007777" lon="-6.770613715">
        <ele>1422.612</ele>
      </trkpt>
      <trkpt lat="42.869981546" lon="-6.770694768">
        <ele>1419.032</ele>
      </trkpt>
      <trkpt lat="42.869864618" lon="-6.770689152">
        <ele>1416.108</ele>
      </trkpt>
      <trkpt lat="42.869783482" lon="-6.770566693">
        <ele>1413.99</ele>
      </trkpt>
      <trkpt lat="42.86983964" lon="-6.770435181">
        <ele>1417.386</ele>
      </trkpt>
      <trkpt lat="42.869746182" lon="-6.770176934">
        <ele>1411.68</ele>
      </trkpt>
      <trkpt lat="42.869761605" lon="-6.769917095">
        <ele>1411.763</ele>
      </trkpt>
      <trkpt lat="42.869702512" lon="-6.769681061">
        <ele>1406.355</ele>
      </trkpt>
      <trkpt lat="42.869664794" lon="-6.769392136">
        <ele>1408.144</ele>
      </trkpt>
      <trkpt lat="42.869565468" lon="-6.769397669">
        <ele>1400.797</ele>
      </trkpt>
      <trkpt lat="42.869573683" lon="-6.769540161">
        <ele>1399.48</ele>
      </trkpt>
      <trkpt lat="42.869442422" lon="-6.769734956">
        <ele>1390.026</ele>
      </trkpt>
      <trkpt lat="42.869380061" lon="-6.769536473">
        <ele>1388.583</ele>
      </trkpt>
      <trkpt lat="42.869275203" lon="-6.769507723">
        <ele>1385.289</ele>
      </trkpt>
      <trkpt lat="42.869178476" lon="-6.769301863">
        <ele>1383.988</ele>
      </trkpt>
      <trkpt lat="42.868799949" lon="-6.769213686">
        <ele>1376.988</ele>
      </trkpt>
      <trkpt lat="42.868481521" lon="-6.76879392">
        <ele>1381.412</ele>
      </trkpt>
      <trkpt lat="42.868307261" lon="-6.768759051">
        <ele>1378.659</ele>
      </trkpt>
      <trkpt lat="42.868090253" lon="-6.7689515">
        <ele>1368.128</ele>
      </trkpt>
      <trkpt lat="42.86809084" lon="-6.769056106">
        <ele>1365.226</ele>
      </trkpt>
      <trkpt lat="42.868144987" lon="-6.769129029">
        <ele>1364.894</ele>
      </trkpt>
      <trkpt lat="42.868093941" lon="-6.769258194">
        <ele>1360.744</ele>
      </trkpt>
      <trkpt lat="42.867825218" lon="-6.769481571">
        <ele>1353.6</ele>
      </trkpt>
      <trkpt lat="42.86728425" lon="-6.769536808">
        <ele>1345.007</ele>
      </trkpt>
      <trkpt lat="42.866819054" lon="-6.769664548">
        <ele>1337.36</ele>
      </trkpt>
      <trkpt lat="42.866776306" lon="-6.769794468">
        <ele>1334.077</ele>
      </trkpt>
      <trkpt lat="42.866610596" lon="-6.769887004">
        <ele>1331.608</ele>
      </trkpt>
      <trkpt lat="42.866545888" lon="-6.769977864">
        <ele>1328.758</ele>
      </trkpt>
      <trkpt lat="42.866345728" lon="-6.76994266">
        <ele>1328.515</ele>
      </trkpt>
      <trkpt lat="42.866147831" lon="-6.770081213">
        <ele>1323.803</ele>
      </trkpt>
      <trkpt lat="42.865745416" lon="-6.770425625">
        <ele>1319.129</ele>
      </trkpt>
      <trkpt lat="42.86561491" lon="-6.770619331">
        <ele>1316.946</ele>
      </trkpt>
      <trkpt lat="42.865546597" lon="-6.770818485">
        <ele>1313.532</ele>
      </trkpt>
      <trkpt lat="42.865283154" lon="-6.77119961">
        <ele>1312.584</ele>
      </trkpt>
      <trkpt lat="42.865160443" lon="-6.771674026">
        <ele>1308.375</ele>
      </trkpt>
      <trkpt lat="42.865031864" lon="-6.771891955">
        <ele>1306.445</ele>
      </trkpt>
      <trkpt lat="42.864615703" lon="-6.772270314">
        <ele>1306.616</ele>
      </trkpt>
      <trkpt lat="42.864204403" lon="-6.772887306">
        <ele>1299.812</ele>
      </trkpt>
      <trkpt lat="42.864146652" lon="-6.772958385">
        <ele>1299.404</ele>
      </trkpt>
      <trkpt lat="42.864129804" lon="-6.772923432">
        <ele>1300.987</ele>
      </trkpt>
      <trkpt lat="42.864115387" lon="-6.772926282">
        <ele>1301.359</ele>
      </trkpt>
      <trkpt lat="42.86396971" lon="-6.773126274">
        <ele>1298.056</ele>
      </trkpt>
      <trkpt lat="42.863585232" lon="-6.77333381">
        <ele>1295.074</ele>
      </trkpt>
      <trkpt lat="42.862997996" lon="-6.773421736">
        <ele>1293.151</ele>
      </trkpt>
      <trkpt lat="42.86244655" lon="-6.773597589">
        <ele>1288.306</ele>
      </trkpt>
      <trkpt lat="42.862077076" lon="-6.773777716">
        <ele>1276.949</ele>
      </trkpt>
      <trkpt lat="42.861920586" lon="-6.773746787">
        <ele>1277.271</ele>
      </trkpt>
      <trkpt lat="42.861746158" lon="-6.773784505">
        <ele>1276.314</ele>
      </trkpt>
      <trkpt lat="42.861283813" lon="-6.77402691">
        <ele>1264.669</ele>
      </trkpt>
      <trkpt lat="42.860940071" lon="-6.7739389">
        <ele>1266.632</ele>
      </trkpt>
      <trkpt lat="42.860686854" lon="-6.774006123">
        <ele>1262.174</ele>
      </trkpt>
      <trkpt lat="42.860539332" lon="-6.773982905">
        <ele>1263.391</ele>
      </trkpt>
      <trkpt lat="42.86010758" lon="-6.773671936">
        <ele>1271.301</ele>
      </trkpt>
      <trkpt lat="42.859364022" lon="-6.772849923">
        <ele>1276.132</ele>
      </trkpt>
      <trkpt lat="42.859058417" lon="-6.772548007">
        <ele>1276.481</ele>
      </trkpt>
      <trkpt lat="42.858964037" lon="-6.772343991">
        <ele>1276.839</ele>
      </trkpt>
      <trkpt lat="42.859051209" lon="-6.772080045">
        <ele>1285.206</ele>
      </trkpt>
      <trkpt lat="42.858850714" lon="-6.771990526">
        <ele>1281.15</ele>
      </trkpt>
      <trkpt lat="42.858709311" lon="-6.771799922">
        <ele>1281.671</ele>
      </trkpt>
      <trkpt lat="42.858451316" lon="-6.771596409">
        <ele>1283.453</ele>
      </trkpt>
      <trkpt lat="42.858421896" lon="-6.771778129">
        <ele>1279.82</ele>
      </trkpt>
      <trkpt lat="42.858474031" lon="-6.771942582">
        <ele>1276.514</ele>
      </trkpt>
      <trkpt lat="42.858467828" lon="-6.772082895">
        <ele>1273.588</ele>
      </trkpt>
      <trkpt lat="42.858252833" lon="-6.772560328">
        <ele>1270.913</ele>
      </trkpt>
      <trkpt lat="42.858057702" lon="-6.77279192">
        <ele>1271.581</ele>
      </trkpt>
      <trkpt lat="42.85793189" lon="-6.772854365">
        <ele>1271.283</ele>
      </trkpt>
      <trkpt lat="42.857772382" lon="-6.772846235">
        <ele>1272.941</ele>
      </trkpt>
      <trkpt lat="42.857258068" lon="-6.772495955">
        <ele>1278.824</ele>
      </trkpt>
      <trkpt lat="42.857180787" lon="-6.772540715">
        <ele>1278.515</ele>
      </trkpt>
      <trkpt lat="42.856963528" lon="-6.772918068">
        <ele>1277.057</ele>
      </trkpt>
      <trkpt lat="42.856625738" lon="-6.773105152">
        <ele>1277.714</ele>
      </trkpt>
      <trkpt lat="42.856181664" lon="-6.773452498">
        <ele>1276.188</ele>
      </trkpt>
      <trkpt lat="42.856186107" lon="-6.773545118">
        <ele>1276.21</ele>
      </trkpt>
      <trkpt lat="42.856308902" lon="-6.773810489">
        <ele>1274.033</ele>
      </trkpt>
      <trkpt lat="42.856646441" lon="-6.774851857">
        <ele>1263.801</ele>
      </trkpt>
      <trkpt lat="42.856679633" lon="-6.775196102">
        <ele>1263.286</ele>
      </trkpt>
      <trkpt lat="42.85666245" lon="-6.775447307">
        <ele>1263.483</ele>
      </trkpt>
      <trkpt lat="42.856572261" lon="-6.775738494">
        <ele>1262.487</ele>
      </trkpt>
      <trkpt lat="42.856302448" lon="-6.776129929">
        <ele>1253.135</ele>
      </trkpt>
      <trkpt lat="42.855925765" lon="-6.776149292">
        <ele>1252.639</ele>
      </trkpt>
      <trkpt lat="42.855808921" lon="-6.776212575">
        <ele>1251.376</ele>
      </trkpt>
      <trkpt lat="42.854918847" lon="-6.777190072">
        <ele>1229.8</ele>
      </trkpt>
      <trkpt lat="42.854678789" lon="-6.777552003">
        <ele>1220.757</ele>
      </trkpt>
      <trkpt lat="42.854433367" lon="-6.77769349">
        <ele>1220.819</ele>
      </trkpt>
      <trkpt lat="42.854021313" lon="-6.77807847">
        <ele>1211.024</ele>
      </trkpt>
      <trkpt lat="42.853606325" lon="-6.778235547">
        <ele>1208.946</ele>
      </trkpt>
      <trkpt lat="42.853117492" lon="-6.778351134">
        <ele>1205.849</ele>
      </trkpt>
      <trkpt lat="42.852651794" lon="-6.778666629">
        <ele>1198.364</ele>
      </trkpt>
      <trkpt lat="42.851776974" lon="-6.778947422">
        <ele>1189.299</ele>
      </trkpt>
      <trkpt lat="42.851592908" lon="-6.779203909">
        <ele>1183.915</ele>
      </trkpt>
      <trkpt lat="42.851497103" lon="-6.779263588">
        <ele>1184.656</ele>
      </trkpt>
      <trkpt lat="42.850871896" lon="-6.780238319">
        <ele>1165.852</ele>
      </trkpt>
      <trkpt lat="42.850706438" lon="-6.780366143">
        <ele>1161.349</ele>
      </trkpt>
      <trkpt lat="42.850114424" lon="-6.780464798">
        <ele>1155.014</ele>
      </trkpt>
      <trkpt lat="42.849743022" lon="-6.780322222">
        <ele>1153.308</ele>
      </trkpt>
      <trkpt lat="42.849491145" lon="-6.780348038">
        <ele>1146.678</ele>
      </trkpt>
      <trkpt lat="42.849076074" lon="-6.780238654">
        <ele>1140.557</ele>
      </trkpt>
      <trkpt lat="42.848663349" lon="-6.780053247">
        <ele>1135.349</ele>
      </trkpt>
      <trkpt lat="42.848261269" lon="-6.779762898">
        <ele>1135.021</ele>
      </trkpt>
      <trkpt lat="42.847785596" lon="-6.779263588">
        <ele>1135.875</ele>
      </trkpt>
      <trkpt lat="42.846602993" lon="-6.777793486">
        <ele>1125.525</ele>
      </trkpt>
      <trkpt lat="42.846283056" lon="-6.77728747">
        <ele>1121.79</ele>
      </trkpt>
      <trkpt lat="42.845644606" lon="-6.776073771">
        <ele>1119.434</ele>
      </trkpt>
      <trkpt lat="42.845166754" lon="-6.775273215">
        <ele>1111.36</ele>
      </trkpt>
      <trkpt lat="42.844916051" lon="-6.774939951">
        <ele>1107.29</ele>
      </trkpt>
      <trkpt lat="42.844431074" lon="-6.774096815">
        <ele>1097.894</ele>
      </trkpt>
      <trkpt lat="42.844271399" lon="-6.773713091">
        <ele>1097.061</ele>
      </trkpt>
      <trkpt lat="42.844114657" lon="-6.773460377">
        <ele>1091.238</ele>
      </trkpt>
      <trkpt lat="42.843959844" lon="-6.773035079">
        <ele>1088.299</ele>
      </trkpt>
      <trkpt lat="42.843441255" lon="-6.772098737">
        <ele>1066.005</ele>
      </trkpt>
      <trkpt lat="42.843247466" lon="-6.771677379">
        <ele>1054.74</ele>
      </trkpt>
      <trkpt lat="42.843032386" lon="-6.771018058">
        <ele>1042.304</ele>
      </trkpt>
      <trkpt lat="42.842883607" lon="-6.770380028">
        <ele>1031.078</ele>
      </trkpt>
      <trkpt lat="42.842922248" lon="-6.769700842">
        <ele>1031.248</ele>
      </trkpt>
      <trkpt lat="42.842928115" lon="-6.769072786">
        <ele>1027.148</ele>
      </trkpt>
      <trkpt lat="42.842787132" lon="-6.767441081">
        <ele>1009.461</ele>
      </trkpt>
      <trkpt lat="42.842676407" lon="-6.767167747">
        <ele>1003.131</ele>
      </trkpt>
      <trkpt lat="42.842689985" lon="-6.766700791">
        <ele>1002.93</ele>
      </trkpt>
      <trkpt lat="42.842623768" lon="-6.765786745">
        <ele>998.48</ele>
      </trkpt>
      <trkpt lat="42.842489323" lon="-6.765405871">
        <ele>992.077</ele>
      </trkpt>
      <trkpt lat="42.842412461" lon="-6.765038492">
        <ele>989.167</ele>
      </trkpt>
      <trkpt lat="42.842097469" lon="-6.764390906">
        <ele>979.518</ele>
      </trkpt>
      <trkpt lat="42.842027983" lon="-6.764409849">
        <ele>977.879</ele>
      </trkpt>
      <trkpt lat="42.841989091" lon="-6.76436685">
        <ele>977.054</ele>
      </trkpt>
      <trkpt lat="42.841874678" lon="-6.763514662">
        <ele>978.343</ele>
      </trkpt>
      <trkpt lat="42.841479974" lon="-6.762660127">
        <ele>977.503</ele>
      </trkpt>
      <trkpt lat="42.841163389" lon="-6.762242876">
        <ele>978.402</ele>
      </trkpt>
      <trkpt lat="42.841124833" lon="-6.761991838">
        <ele>979.019</ele>
      </trkpt>
      <trkpt lat="42.840899359" lon="-6.761573916">
        <ele>978.11</ele>
      </trkpt>
      <trkpt lat="42.840484958" lon="-6.761303348">
        <ele>974.808</ele>
      </trkpt>
      <trkpt lat="42.840360319" lon="-6.761138393">
        <ele>973.12</ele>
      </trkpt>
      <trkpt lat="42.840294605" lon="-6.76092281">
        <ele>971.647</ele>
      </trkpt>
      <trkpt lat="42.840405833" lon="-6.760615865">
        <ele>973.766</ele>
      </trkpt>
      <trkpt lat="42.840470122" lon="-6.760186041">
        <ele>976.148</ele>
      </trkpt>
      <trkpt lat="42.840452688" lon="-6.760122171">
        <ele>976.207</ele>
      </trkpt>
      <trkpt lat="42.840238446" lon="-6.759871384">
        <ele>973.023</ele>
      </trkpt>
      <trkpt lat="42.839775179" lon="-6.759119863">
        <ele>971.309</ele>
      </trkpt>
      <trkpt lat="42.839469658" lon="-6.758749634">
        <ele>968.916</ele>
      </trkpt>
      <trkpt lat="42.839101693" lon="-6.758358786">
        <ele>964.24</ele>
      </trkpt>
      <trkpt lat="42.838654267" lon="-6.757967183">
        <ele>956.717</ele>
      </trkpt>
      <trkpt lat="42.838361906" lon="-6.757376092">
        <ele>955.658</ele>
      </trkpt>
      <trkpt lat="42.838229304" lon="-6.757153049">
        <ele>955.063</ele>
      </trkpt>
      <trkpt lat="42.83794608" lon="-6.756916177">
        <ele>952.043</ele>
      </trkpt>
      <trkpt lat="42.837763941" lon="-6.756483251">
        <ele>953.476</ele>
      </trkpt>
      <trkpt lat="42.837414499" lon="-6.756101288">
        <ele>952.521</ele>
      </trkpt>
      <trkpt lat="42.837276282" lon="-6.755755451">
        <ele>951.885</ele>
      </trkpt>
      <trkpt lat="42.837192211" lon="-6.755183386">
        <ele>956.008</ele>
      </trkpt>
      <trkpt lat="42.836837992" lon="-6.754611488">
        <ele>956.088</ele>
      </trkpt>
      <trkpt lat="42.836605813" lon="-6.754371012">
        <ele>949.795</ele>
      </trkpt>
      <trkpt lat="42.836405737" lon="-6.754010255">
        <ele>946.949</ele>
      </trkpt>
      <trkpt lat="42.835923443" lon="-6.753350599">
        <ele>941.705</ele>
      </trkpt>
      <trkpt lat="42.835788578" lon="-6.75302865">
        <ele>941.152</ele>
      </trkpt>
      <trkpt lat="42.835713727" lon="-6.752956146">
        <ele>941.682</ele>
      </trkpt>
      <trkpt lat="42.835474508" lon="-6.752522131">
        <ele>942.779</ele>
      </trkpt>
      <trkpt lat="42.835406782" lon="-6.752161374">
        <ele>947.459</ele>
      </trkpt>
      <trkpt lat="42.835228667" lon="-6.751797516">
        <ele>945.373</ele>
      </trkpt>
      <trkpt lat="42.835207796" lon="-6.751606157">
        <ele>948.328</ele>
      </trkpt>
      <trkpt lat="42.83514074" lon="-6.751483278">
        <ele>946.108</ele>
      </trkpt>
      <trkpt lat="42.835113583" lon="-6.751195025">
        <ele>946.357</ele>
      </trkpt>
      <trkpt lat="42.834914681" lon="-6.750790263">
        <ele>943.511</ele>
      </trkpt>
      <trkpt lat="42.83485827" lon="-6.750740893">
        <ele>941.867</ele>
      </trkpt>
      <trkpt lat="42.834769841" lon="-6.750475857">
        <ele>945.288</ele>
      </trkpt>
      <trkpt lat="42.834518636" lon="-6.750159357">
        <ele>945.563</ele>
      </trkpt>
      <trkpt lat="42.834105659" lon="-6.74983833">
        <ele>942.659</ele>
      </trkpt>
      <trkpt lat="42.83382629" lon="-6.749413451">
        <ele>945.629</ele>
      </trkpt>
      <trkpt lat="42.833596375" lon="-6.749166101">
        <ele>947.27</ele>
      </trkpt>
      <trkpt lat="42.833491517" lon="-6.748881117">
        <ele>949.851</ele>
      </trkpt>
      <trkpt lat="42.833129168" lon="-6.748202182">
        <ele>952.941</ele>
      </trkpt>
      <trkpt lat="42.832473116" lon="-6.747294255">
        <ele>951.053</ele>
      </trkpt>
      <trkpt lat="42.832265077" lon="-6.747204736">
        <ele>945.008</ele>
      </trkpt>
      <trkpt lat="42.831880515" lon="-6.746716909">
        <ele>944.9</ele>
      </trkpt>
      <trkpt lat="42.831654539" lon="-6.746609453">
        <ele>942.816</ele>
      </trkpt>
      <trkpt lat="42.83151146" lon="-6.746448688">
        <ele>946.372</ele>
      </trkpt>
      <trkpt lat="42.830948699" lon="-6.746027833">
        <ele>943.872</ele>
      </trkpt>
      <trkpt lat="42.830498423" lon="-6.745767156">
        <ele>938.081</ele>
      </trkpt>
      <trkpt lat="42.83025166" lon="-6.745442189">
        <ele>939.536</ele>
      </trkpt>
      <trkpt lat="42.829847066" lon="-6.745224763">
        <ele>938.287</ele>
      </trkpt>
      <trkpt lat="42.829439286" lon="-6.74476753">
        <ele>937.427</ele>
      </trkpt>
      <trkpt lat="42.829270978" lon="-6.744667953">
        <ele>936.504</ele>
      </trkpt>
      <trkpt lat="42.829081547" lon="-6.744444743">
        <ele>936.769</ele>
      </trkpt>
      <trkpt lat="42.828992615" lon="-6.744445078">
        <ele>935.482</ele>
      </trkpt>
      <trkpt lat="42.828693967" lon="-6.744290516">
        <ele>933.244</ele>
      </trkpt>
      <trkpt lat="42.828310831" lon="-6.744137462">
        <ele>929.556</ele>
      </trkpt>
      <trkpt lat="42.828068342" lon="-6.743764551">
        <ele>930.913</ele>
      </trkpt>
      <trkpt lat="42.827948229" lon="-6.743389629">
        <ele>926.192</ele>
      </trkpt>
      <trkpt lat="42.827829374" lon="-6.743173627">
        <ele>926.058</ele>
      </trkpt>
      <trkpt lat="42.827365436" lon="-6.74284338">
        <ele>921.278</ele>
      </trkpt>
      <trkpt lat="42.827132754" lon="-6.742834998">
        <ele>914.439</ele>
      </trkpt>
      <trkpt lat="42.826988082" lon="-6.742700804">
        <ele>914.098</ele>
      </trkpt>
      <trkpt lat="42.826459017" lon="-6.742476672">
        <ele>907.817</ele>
      </trkpt>
      <trkpt lat="42.825731384" lon="-6.741806287">
        <ele>905.837</ele>
      </trkpt>
      <trkpt lat="42.825468276" lon="-6.741996389">
        <ele>904.868</ele>
      </trkpt>
      <trkpt lat="42.825321257" lon="-6.742003514">
        <ele>906.322</ele>
      </trkpt>
      <trkpt lat="42.824986987" lon="-6.741781058">
        <ele>906.523</ele>
      </trkpt>
      <trkpt lat="42.824591026" lon="-6.741727497">
        <ele>911.766</ele>
      </trkpt>
      <trkpt lat="42.824376281" lon="-6.742136953">
        <ele>919.731</ele>
      </trkpt>
      <trkpt lat="42.824340742" lon="-6.742459824">
        <ele>921.637</ele>
      </trkpt>
      <trkpt lat="42.824382652" lon="-6.742835836">
        <ele>923.656</ele>
      </trkpt>
      <trkpt lat="42.824523048" lon="-6.743204976">
        <ele>927.647</ele>
      </trkpt>
      <trkpt lat="42.824682137" lon="-6.743333386">
        <ele>928.289</ele>
      </trkpt>
      <trkpt lat="42.82479479" lon="-6.743661622">
        <ele>929.849</ele>
      </trkpt>
      <trkpt lat="42.825078266" lon="-6.744006118">
        <ele>929.628</ele>
      </trkpt>
      <trkpt lat="42.825245317" lon="-6.744331587">
        <ele>930.773</ele>
      </trkpt>
      <trkpt lat="42.825245317" lon="-6.744331587">
        <ele>930.773</ele>
      </trkpt>
      <trkpt lat="42.825494169" lon="-6.744467425">
        <ele>930.69</ele>
      </trkpt>
      <trkpt lat="42.825737122" lon="-6.744726039">
        <ele>931.725</ele>
      </trkpt>
      <trkpt lat="42.82609992" lon="-6.745088251">
        <ele>931.729</ele>
      </trkpt>
      <trkpt lat="42.826127124" lon="-6.745115412">
        <ele>931.773</ele>
      </trkpt>
      <trkpt lat="42.826127124" lon="-6.745115412">
        <ele>931.773</ele>
      </trkpt>
      <trkpt lat="42.826218764" lon="-6.745158999">
        <ele>931.757</ele>
      </trkpt>
    </trkseg>
  </trk>
</gpx>
